name,address,latitude,longitude,geometry,index_right,district,state,poi_types
ZUS Coffee – Temu Business Centre City Of Elmina,"No 5 (Ground Floor), Jalan Eserina AA U16/AA Elmina, East, Seksyen U16, 40150 Shah Alam, Selangor",3.186148,101.5190497,,36,PETALING,SELANGOR,[]
"ZUS Coffee – Straits City, Penang","GF-3C, Ground Floor, 4823-4824, 2F, Jalan Pantai, Taman Selat, 12000 Butterworth, Pulau Pinang",5.395911,100.3658764,,51,SEBERANG PERAI UTARA,PULAU PINANG,"['transit_station', 'university', 'gas_station', 'shopping_mall']"
ZUS Coffee – Spectrum Shopping Mall,"Lot CW-5 Cafe Walk, Ground Floor Spectrum Shopping Mall Jalan Wawasan Ampang, 4, 2, Bandar Baru Ampang, 68000 Ampang, Selangor",3.1404322,101.7690244,,34,ULU LANGAT,SELANGOR,"['transit_station', 'university']"
ZUS Coffee – Paradigm Mall Johor Bahru,"Lot 4FK-35, Paradigm Mall, Jalan Skudai Lbh, 81200 Skudai, Johor",1.5156318,103.6857437,,61,JOHOR BAHRU,JOHOR,"['transit_station', 'university', 'gas_station', 'shopping_mall']"
ZUS Coffee – Klippa Shopping Centre,"8, LG.07, Lower Ground Floor IKEA Batu Kawan Link Building, 752, Persiaran Cassia Selatan, 8, Lebuhraya Bandar Cassia, 14110 Simpang Ampat, Pulau Pinang",5.2338165,100.4404007,,14,SEBERANG PERAI SELATAN,PULAU PINANG,"['university', 'shopping_mall']"
ZUS Coffee – Karamunsing Shopping Complex,"Lot 1.93.95, Karamunsing Shopping Complex, Lot-LG91B, Lower Ground Floor, 88000 Kota Kinabalu, Sabah",5.9708249,116.0751345,,103,WEST COAST SOUTH,SABAH,"['transit_station', 'gas_station', 'shopping_mall']"
ZUS Coffee – Bandar Menjalara,"37, Jalan 3/62a, Bandar Menjalara, 52200 Kuala Lumpur, Wilayah Persekutuan Kuala Lumpur",3.1950509,101.6298663,,52,KUALA LUMPUR,WP KUALA LUMPUR,"['transit_station', 'gas_station', 'shopping_mall']"
"ZUS Coffee – Jabatan Peguam Negara,  Putrajaya","Bangunan Jabatan Peguam Negara AGC Persint 4, Lot 1, Level 1, Putrajaya 62100 Malaysia",2.905659,101.6816013,,53,PUTRAJAYA,WP PUTRAJAYA,['transit_station']
"ZUS Coffee – Lembah Sireh, Kota Bharu","PT384 (GF), Lembah Sireh, 15050 Kota Bharu, Kelantan.",6.1150863,102.2310784,,45,KOTA BHARU,KELANTAN,"['transit_station', 'university', 'shopping_mall']"
"ZUS Coffee – LSH33, Sentul","G-11, Ground Floor, Laman Seri Harmoni (LSH33), No. 3, Jalan Batu Muda Tambahan 3, Sentul, 51100 Kuala Lumpur, Wilayah Persekutuan Kuala Lumpur",3.2088049,101.692099,,52,KUALA LUMPUR,WP KUALA LUMPUR,"['transit_station', 'gas_station', 'shopping_mall']"
ZUS Coffee – Kipmall Melaka,"Lot PA-FB01, Kipmall Melaka, 3, Jalan Perindustrian Bachang Baru 3, Taman Bachang Barum, Batu Berendam, 75350 Melaka",2.2338374,102.2498678,,19,MELAKA TENGAH,MELAKA,"['transit_station', 'gas_station', 'shopping_mall']"
"ZUS Coffee – Bandar Tun Hussein Onn, Cheras","No 48A Jalan Suarasa 8/4, Bandar Tun Hussein Onn, 43200 Cheras, Selangor",3.0473093,101.7591785,,34,ULU LANGAT,SELANGOR,"['gas_station', 'shopping_mall']"
ZUS Coffee – Universiti Teknikal Malaysia Melaka (UTeM),"Kafeteria Eksekutif, Universiti Teknikal Malaysia Melaka, Hang Tuah Jaya, 76100 Durian Tunggal, Melaka, Malaysia.",2.313797,102.3211164,,20,ALOR GAJAH,MELAKA,"['university', 'shopping_mall']"
ZUS Coffee – AEON BiG Wangsa Maju,"Lot F1.11 (First Floor), AEON BiG Wangsa Maju, 6, Jalan 8/27A, Section 5, Wangsa Maju, 53300, Kuala Lumpur, Wilayah Persekutuan",3.196448,101.7422024,,52,KUALA LUMPUR,WP KUALA LUMPUR,"['transit_station', 'gas_station', 'shopping_mall']"
ZUS Coffee – Cheras Business Centre,"No 6 Jalan 5/101C, Cheras Business Centre, 56100 Cheras, Kuala Lumpur",3.1000692,101.7403603,,52,KUALA LUMPUR,WP KUALA LUMPUR,"['transit_station', 'university', 'gas_station']"
"ZUS Coffee – Jalan Sia Her Yam, Segamat","No 126(GF) Jalan Sia Her Yam, 85000 Segamat, Johor",2.5045457,102.8230958,,66,DAERAH SEGAMAT,JOHOR,"['transit_station', 'university', 'gas_station', 'shopping_mall']"
"ZUS Coffee – Damansara Perdana, Petaling Jaya","12-1 (Ground floor), Jalan PJU 8/5E, Bandar Damansara Perdana, 47820 Petaling Jaya, Selangor.",3.1661509,101.6065596,,36,PETALING,SELANGOR,"['transit_station', 'university', 'shopping_mall']"
"ZUS Coffee – Bandar Damai Perdana, Cheras","No 19G (Ground floor), Jalan Damai Perdana 1/9b, Bandar Damai Perdana, 56000 Kuala Lumpur, Wilayah Persekutuan Kuala Lumpur",3.0463577,101.7399829,,34,ULU LANGAT,SELANGOR,"['transit_station', 'university']"
ZUS Coffee – Mydin Senawang,"GPL-12 (Ground Floor, GPL-11, 110, Jalan BPS 7, Bandar Prima Senawang GPL-09,GPL-10, 70450 Seremban, Negeri Sembilan",2.7009656,101.9798667,,2,SEREMBAN,NEGERI SEMBILAN,"['transit_station', 'shopping_mall']"
"ZUS Coffee – Permyjaya, Miri","Lot 7182 , Ground Floor, Pusat Bandar, Bandar Baru Permyjaya Miri., Miri, 98000 Miri, Sarawak",4.4631608,114.0375513,,109,MIRI,SARAWAK,[]
"ZUS Coffee – Gunung Rapat, Ipoh","No.46 (Ground Floor), Jalan Besar Gunung Rapat, Kampung Baru Gunung Rapat, 31350 Ipoh, Perak.",4.5699945,101.1179926,,68,DAERAH KINTA,PERAK,"['transit_station', 'university', 'gas_station']"
"ZUS Coffee – Plaza Shell, Kota Kinabalu","Lot G.08, Ground Floor, Plaza Shell, 29, Jalan Tunku Abdul Rahman, 88000, Kota Kinabalu, Sabah",5.9772231,116.0747608,,103,WEST COAST SOUTH,SABAH,"['university', 'gas_station', 'shopping_mall']"
"ZUS Coffee – Taman Tangga Batu Perdana, Melaka","35 (Ground Floor), Jalan Seri Buana 2, Taman Tangga Batu Perdana, 76400 Melaka.",2.2516795,102.1574231,,19,MELAKA TENGAH,MELAKA,"['transit_station', 'gas_station']"
"ZUS Coffee – Desa Pandan, Ampang","No 35 (Ground Floor), Jalan 3/76D, Desa Pandan, 55100, Kuala Lumpur, Wilayah Persekutuan Kuala Lumpur.",3.1473656,101.7385179,,52,KUALA LUMPUR,WP KUALA LUMPUR,"['transit_station', 'gas_station', 'shopping_mall']"
"ZUS Coffee – Kenanga Wholesale City, Jalan Gelugor","G-92 (GF 012.2) & G-93 (GF 012.1), Ground Floor, Kompleks Kenanga Wholesale City, No. 2, Jalan Gelugor, 55200 Kuala Lumpur",3.1363532,101.70795,,52,KUALA LUMPUR,WP KUALA LUMPUR,"['transit_station', 'university', 'gas_station', 'shopping_mall']"
ZUS Coffee – BHPetrol Nilai Layby Southbound,"Lot 50084, Kawasan Rehat&Rawat Nilai (Arah Selatan) KM286.6, Lebuhraya Kuala Lumpur – Seremban, 71800 Nilai, Negeri Sembilan",2.1476778,102.6993957,,59,MUAR,JOHOR,['gas_station']
ZUS Coffee – Giant Shah Alam Stadium,"A14 – A16, Ground Floor, Giant Shah Alam Stadium, Persiaran Sukan, Seksyen 13, 40100 Shah Alam, Selangor",3.0840056,101.5493023,,36,PETALING,SELANGOR,['transit_station']
"ZUS Coffee – Simpang Pulai, Perak","No.83 (Ground Floor), Jalan Pusat Perniagaan Pulai 1, Pusat Perniagaan Pulai, 31300 Kampung Kepayang, Perak.",4.5277776,101.1268823,,68,DAERAH KINTA,PERAK,['transit_station']
ZUS Coffee – Bintang Fairlane Residence,"B�0�1 (Ground Floor), Block B, Retail 1, Bintang Fairlane, NO. 23, Jalan Padang Walter Grenier 55100 Kuala Lumpur",3.1450559,101.7125486,,52,KUALA LUMPUR,WP KUALA LUMPUR,"['transit_station', 'university', 'gas_station', 'shopping_mall']"
"ZUS Coffee – Nadayu 801, Taman Subang Murni","Lot 08, Nadayu 801, Taman Subang Murni, 40150 Shah Alam, Selangor",3.1639229,101.5468734,,36,PETALING,SELANGOR,"['transit_station', 'shopping_mall']"
ZUS Coffee – AEON BiG Batu Pahat,"Lot F1.20 (Ground Floor), AEON BiG Batu Pahat, 1B, Jalan Persiaran Flora Utama, Taman Flora Utama, 83000 Batu Pahat, Johor.",1.8655125,102.9484663,,58,BATU PAHAT,JOHOR,"['gas_station', 'shopping_mall']"
ZUS Coffee – MAB Academy Campus Sepang,"Level 1, MAB Academy (MABA Campus) Building, Southern Support Zone KLIA, 64000 Sepang, Selangor",2.7281586,101.7179314,,38,SEPANG,SELANGOR,[]
"ZUS Coffee – Jalan Berangan, Port Klang","No 20(GF) Jalan Berangan, 42000 Port Klang, Selangor.",3.0045575,101.3983188,,39,KLANG,SELANGOR,"['transit_station', 'gas_station', 'shopping_mall']"
"ZUS Coffee – Kelapa Sawit, Kulai","No 18(GF) Jalan Impiana 1, Taman Impiana, Kelapa Sawit, 81030 Kulai, Johor",1.6772575,103.5359737,,63,KULAI,JOHOR,[]
"ZUS Coffee – Bandar Dato Onn, Johor Bahru","No 22(GF) Jalan Perjiranan 4/1, Bandar Dato Onn, 81100 Johor Bahru, Johor.",1.562184,103.7351759,,61,JOHOR BAHRU,JOHOR,"['transit_station', 'university', 'gas_station', 'shopping_mall']"
"ZUS Coffee – Pusat Perniagaan Mas Jaya, Muar","No 1201-5 Jalan Perniagaan Jaya 5, Pusat Perniagaan Mas Jaya, 84000 Muar, Johor",2.0689911,102.5782038,,59,MUAR,JOHOR,"['transit_station', 'gas_station', 'shopping_mall']"
ZUS Coffee – Ampang Point,"No 50(GF) Jalan Memanda 9, Selangor. Taman Dato Ahmad Razali, 68000 Ampang, Selangor",3.1583266,101.7534938,,34,ULU LANGAT,SELANGOR,"['transit_station', 'university', 'gas_station', 'shopping_mall']"
"ZUS Coffee – Seksyen 3, Bandar Baru Bangi","47-G, Jalan 3/69, Seksyen 3, 43650 Bandar Baru Bangi, Selangor",2.9374286,101.7737955,,34,ULU LANGAT,SELANGOR,"['transit_station', 'gas_station']"
"ZUS Coffee – Seksyen 7, Bandar Baru Bangi","No.48G (Ground Floor), Jalan 7/7a, Seksyen 7, 43650 Bandar Baru Bangi, Selangor.",2.9701387,101.7737474,,34,ULU LANGAT,SELANGOR,"['transit_station', 'university', 'gas_station', 'shopping_mall']"
"ZUS Coffee – Desa Aman Puri, Kepong","No. 3-15A (GF), Jalan Desa 2/2, Desa Aman Puri, 52100 Kuala Lumpur.",3.2088502,101.6152999,,37,GOMBAK,SELANGOR,"['transit_station', 'gas_station', 'shopping_mall']"
"ZUS Coffee – Bandar Perda, Bukit Mertajam","469, Jln. Permatang Rawa, Bandar Perda, 14000 Bukit Mertajam, Pulau Pinang",5.3660959,100.4370419,,17,SEBERANG PERAI TENGAH,PULAU PINANG,"['transit_station', 'gas_station', 'shopping_mall']"
ZUS Coffee – Senai International Airport,"Lot S5 (GF) Aeromall Johor Bahru Senai International Airport, 81250 Senai, Johor.",1.6358957,103.6658887,,63,KULAI,JOHOR,"['transit_station', 'gas_station', 'shopping_mall']"
"ZUS Coffee – M Vertica, Cheras","No Lot G-10(GF) M Vertica Retail Shop, 555 Jalan Cheras, Taman Pertama, 56000 Kuala Lumpur.",3.1185411,101.7272555,,52,KUALA LUMPUR,WP KUALA LUMPUR,"['transit_station', 'university', 'gas_station']"
ZUS Coffee – Kipmall Lavender Height Senawang,"S07, Ground Floor, Kipmall Lavender Height Senawang, Taman Seri Paroi, 70400 Seremban, Negeri Sembilan.",2.7141239,102.0028652,,2,SEREMBAN,NEGERI SEMBILAN,"['gas_station', 'shopping_mall']"
ZUS Coffee – Pasaraya CS Bangi Avenue,"Kiosk K10 & K11 (Ground Floor), No.1, Persiaran Bangi Avenue, Taman Bangi Avenue, 43000 Kajang, Selangor Darul Ehsan.",2.9023691,101.7897349,,34,ULU LANGAT,SELANGOR,"['transit_station', 'shopping_mall']"
"ZUS Coffee – Lorong Pandan Pertama 5, Ampang","SA-10-G, Lorong Pandan Pertama 5, Taman Pandan Utama, 68000 Ampang Jaya, Selangor",3.1412628,101.7473385,,34,ULU LANGAT,SELANGOR,['transit_station']
ZUS Coffee – Pearl City Mall,"G-15, Pearl City Mall, 8936, Jalan Tasek Mutiara 2, Bandar Tasek Mutiara, 14120 Simpang Ampat, Pulau Pinang",5.2773659,100.4909111,,14,SEBERANG PERAI SELATAN,PULAU PINANG,"['transit_station', 'shopping_mall']"
"ZUS Coffee – Edusentral, Setia Alam","VB-G-07 (Ground Floor), Edu Sentral, Jalan Setia Murni U13/51, Setia Alam Seksyen U13, 40170 Shah Alam, Selangor Darul Ehsan",3.114818,101.4537537,,36,PETALING,SELANGOR,[]
ZUS Coffee – Jetty Kuala Perlis,"No.49(GF), Persiaran Putra Timur 1, 02000 Kuala Perlis, Perlis.",6.3982328,100.1281059,,67,TIADA DAERAH,PERLIS,"['transit_station', 'gas_station']"
ZUS Coffee – Wangsa Walk Mall,"GL-03A & FL-03A and GL-05 & FL-05, BL-03A & BL-05, Wangsa Walk Mall, Wangsa Permai, 53300 Wilayah Persekutuan Kuala Lumpur",3.203764,101.7367351,,52,KUALA LUMPUR,WP KUALA LUMPUR,"['transit_station', 'university', 'shopping_mall']"
"ZUS Coffee – Jalan Balik Pulau, Penang","47, Mukim 6, Balik Pulau VLGE Area, 11000 Balik Pulau Penang",5.3400647,100.2039477,,16,BARAT DAYA,PULAU PINANG,['transit_station']
ZUS Coffee – MMU Melaka (Plaza Siswa Building),"Lot MXMR0011, Ground Floor, Plaza Siswa Building, Multimedia University, Jalan Ayer Keroh Lama, 75450 Bukit Beruang, Melaka",2.2650682,102.2839479,,19,MELAKA TENGAH,MELAKA,['transit_station']
"ZUS Coffee – Chemor, Perak","No. 20 ( Ground Floor ), Jalan Hume, Chemor, 31200 Chemor Perak.",4.7311029,101.1051259,,68,DAERAH KINTA,PERAK,[]
"ZUS Coffee – Sungai 2, Butterworth","Lot 12, Ground & 1st Floor, Pusat Perniagaan, Lorong Perniagaan, 13800 Sungai Dua, Penang",5.44503,100.4297911,,51,SEBERANG PERAI UTARA,PULAU PINANG,"['transit_station', 'university', 'shopping_mall']"
"ZUS Coffee – Coast Kemaman, Terengganu","Pusat Perniagaan Coast, Unit C-G-06, Blok C, Persiaran Coast, 24000 Chukai, Terengganu",4.2464854,103.4251482,,7,KEMAMAN,TERENGGANU,[]
"ZUS Coffee – Beacon Executive Suites, Penang","142-01-01, Beacon Executive Suites, Jalan Sungai Pinang, 10150 Georgetown, Pulau Pinang",5.4094004,100.3168017,,15,TIMOR LAUT,PULAU PINANG,"['transit_station', 'gas_station', 'shopping_mall']"
ZUS Coffee – C-Mart BDI Jitra,"46, C-Mart BDI Jitra, 1, Jalan Industri Darul Aman, Kawasan Perusahaan Bandar, 06000 Jitra, Kedah",6.2529053,100.4289855,,55,DAERAH KUBANG PASU,KEDAH,['university']
"ZUS Coffee –  Jalan Lembah 16, Bandar Seri Alam","No. 20(GF) Jalan Lembah 16, Bandar Seri Alam, 81750 Masai, Johor",1.5101135,103.865357,,61,JOHOR BAHRU,JOHOR,['university']
"ZUS Coffee – Uptown Damansara, Petaling Jaya","44-G (Ground Floor), JALAN SS21/39, DAMANSARA UTAMA, 47400 PETALING JAYA, SELANGOR",3.1354592,101.621646,,36,PETALING,SELANGOR,"['transit_station', 'university', 'gas_station', 'shopping_mall']"
ZUS Coffee – Bangsar Trade Centre,"Lot E-1-2(A), Ground Floor, Tower E, Bangsar Trade Centre. Off Jalan Pantai Baru, 59200 Kuala Lumpur.",3.115216,101.667728,,52,KUALA LUMPUR,WP KUALA LUMPUR,"['transit_station', 'university', 'gas_station', 'shopping_mall']"
ZUS Coffee – Petron Kuantan Bypass,"No 01(GF) Lot 122773, Pandan Sejahtera 3, Jalan Kuantan Bypass, 25150 Kuantan, Pahang",3.7832999,103.2286826,,81,DAERAH KUANTAN,PAHANG,['gas_station']
ZUS Coffee – Bandar Ainsdale Sales Gallery,"TCS Office, 1, Persiaran Ainsdale 1/1, Bandar Ainsdale, 70300 Seremban, Negeri Sembilan",2.7258336,101.8899429,,2,SEREMBAN,NEGERI SEMBILAN,['gas_station']
"ZUS Coffee DT – Botani Village, Perak","FF02, Pusat Komersial Botani Village Medan Botani, 10, Medan Botani 1A, Bandar Seri Botani, 31350 Ipoh, Perak",4.5243557,101.1030749,,68,DAERAH KINTA,PERAK,[]
ZUS Coffee – Galleria @ Kotaraya,"LG 12, 13 & 14, Lower Ground Floor, Galleria @ Kotaraya, Jalan Trus, UTC, 80000 Johor Bahru, Johor",1.459073,103.7627055,,61,JOHOR BAHRU,JOHOR,"['transit_station', 'university', 'gas_station', 'shopping_mall']"
ZUS Coffee – Taman Damansara Aliff,"No. 41(GF) Jalan Aliff 6, Taman Damansara Aliff, 81200 Johor Bahru, Johor",1.5124983,103.723713,,61,JOHOR BAHRU,JOHOR,"['gas_station', 'shopping_mall']"
"ZUS Coffee – Bagan Ajam, Butterworth","No.97 Ground Floor, Jalan Merbau, Pusat Perniagaan Oren, 13000 Butterworth, Pulau Pinang",5.4380674,100.3829727,,51,SEBERANG PERAI UTARA,PULAU PINANG,"['transit_station', 'shopping_mall']"
ZUS Coffee – Boulevard Shopping Mall Miri,"G-K01, Ground Floor, Boulevard Shopping Mall, Lot 2528, Boulevard Commercial Centre, 98000 Miri, Sarawak",4.4151455,114.0129009,,109,MIRI,SARAWAK,"['transit_station', 'gas_station', 'shopping_mall']"
ZUS Coffee – BHPetrol Karak Highway,"Lot 1173, Stesen Minyak BP Lebuhraya Karak Kuala Lumpur, Daerah Gombak, 53000 Kuala Lumpur",3.3699111,101.8565525,,87,DAERAH BENTONG,PAHANG,[]
ZUS Coffee – KL Eco City Mall,"G-12, Ground Floor, KL Eco City Mall, INC, 3, Jalan Bangsar, KL Eco City, 59200 Kuala Lumpur, Federal Territory of Kuala Lumpur",3.1193326,101.6743881,,52,KUALA LUMPUR,WP KUALA LUMPUR,"['transit_station', 'university', 'gas_station', 'shopping_mall']"
"ZUS Coffee – Alam Budiman, Shah Alam","No 53-G, Jalan Pulau Lumut P U10/P, Alam Budiman, Seksyen U10, 40170 Shah Alam, Selangor",3.1442965,101.4822904,,36,PETALING,SELANGOR,['shopping_mall']
ZUS Coffee – Elmina Lakeside Mall,"GF-95 & 96, Elmina Lakeside Mall, No.5 & No.7, Persiaran Garcinia, Seksyen U15, 40170 Shah Alam, Selangor Darul Ehsan",3.1821168,101.5102279,,36,PETALING,SELANGOR,['shopping_mall']
ZUS Coffee – Pinnacle Sri Petaling Mall,"G-K-01, Ground Floor, Pinnacle Sri Petaling Mall, Jalan Radin Anum 1, Bandar Baru Sri Petaling, 57000 Kuala Lumpur, Malaysia",3.0677233,101.6944259,,52,KUALA LUMPUR,WP KUALA LUMPUR,"['transit_station', 'university', 'gas_station', 'shopping_mall']"
"ZUS Coffee – Dataran Glomac, Kelana Jaya","C-G-05 (Ground Floor), Jalan SS 6/5b, Dataran Glomac, 47301 Petaling Jaya, Selangor.",3.1030599,101.6002404,,36,PETALING,SELANGOR,"['transit_station', 'university', 'gas_station', 'shopping_mall']"
"ZUS Coffee – UOA Business Park, Shah Alam","Unit Lot- 13-03A, Level 1, UOA Business Park, No 1, Jalan Pengatucara U1/51A, Seksyen U1 40150 Selangor Darul Ehsan",3.0848318,101.5840178,,36,PETALING,SELANGOR,"['transit_station', 'university', 'gas_station', 'shopping_mall']"
"ZUS Coffee – Pekan Mantin, Negeri Sembilan","No 8A-2 (Ground Floor), Jalan Besar, Pekan Mantin, 71700 Mantin, Negeri Sembilan",2.8235304,101.8923854,,2,SEREMBAN,NEGERI SEMBILAN,"['transit_station', 'gas_station']"
"ZUS Coffee – Eco Palladium, JB","A-01-01, Pusat Perdagangan Ekoflora, Jalan Ekoflora 7/2, 81100 Johor Bahru.",1.5879828,103.761101,,61,JOHOR BAHRU,JOHOR,['shopping_mall']
ZUS Coffee – Miri Times Square,"A-G-26, Miri Time Square, Jalan Bendahara, 98000 Miri, Sarawak",4.3931236,113.9861436,,109,MIRI,SARAWAK,"['transit_station', 'university', 'shopping_mall']"
ZUS Coffee – Atria Shopping Gallery,"Atria Shopping Mall, Kiosk CK9, Concourse Floor, Jalan SS 22/23, Damansara Jaya, 47400 Petaling Jaya, Selangor",3.1270963,101.6165176,,36,PETALING,SELANGOR,"['transit_station', 'gas_station', 'shopping_mall']"
"ZUS Coffee – Jalan Tunku Putra, Kulim","No.174(GF), Jalan Tunku Putra, 09000 Kulim Kedah.",5.381496,100.5557614,,28,DAERAH KULIM,KEDAH,"['transit_station', 'gas_station']"
"ZUS Coffee – Uni-Avenue, Sibu","Lot 11, Uni-Avenue, Jln Setia, 96000 Sibu, Sarawak",2.344394,111.8403584,,114,SIBU,SARAWAK,"['university', 'gas_station']"
"ZUS Coffee – Lukut, Port Dickson","No. 56 (Ground Floor), Taman Aman , 71010 Port Dickson , Negeri Sembilan.",2.5710824,101.8282639,,0,PORT DICKSON,NEGERI SEMBILAN,"['transit_station', 'gas_station']"
ZUS Coffee – Langkawi International Airport (Food Garden),"Lot FG 05, Langkawi International Airport Food Garden, Level 1, Arrival Hall (Landside), 07100 Langkawi, Kedah",6.3661203,99.7798102,,21,DAERAH LANGKAWI,KEDAH,[]
"ZUS Coffee – Taman Tasik Indah, Kluang","No 57 (GF) Jalan Tasik Indah 1/1, Taman Tasik Indah, 86000 Kluang, Johor",1.9959955,103.2952913,,62,KLUANG,JOHOR,['gas_station']
"ZUS Coffee – Lebuh Turi, Klang","Lot No. 88 (Ground Floor), Lebuh Turi, Taman Chi Liung, 41200 Klang, Selangor",3.0255439,101.4290928,,39,KLANG,SELANGOR,"['university', 'gas_station', 'shopping_mall']"
"ZUS Coffee – Ground Floor, Menara IQ","Unit 001, Ground Floor, Menara IQ, TRX 55188 Kuala Lumpur",3.1408214,101.7189889,,52,KUALA LUMPUR,WP KUALA LUMPUR,"['transit_station', 'shopping_mall']"
"ZUS, Coffee Meets Pastry – 1 Utama Shopping Centre","Lot G601A, Ground Floor, 1 Utama Shopping Centre, 1, Lebuh Bandar Utama, Bandar Utama, 47800 Petaling Jaya, Selangor",3.147911,101.6159551,,36,PETALING,SELANGOR,"['transit_station', 'gas_station', 'shopping_mall']"
"ZUS Coffee – Taman Segar Perdana, Cheras","No 07GF) Jalan Segar Perdana 2, Taman Segar Perdana, 43200 Cheras, Selangor.",3.0913132,101.761615,,34,ULU LANGAT,SELANGOR,"['transit_station', 'gas_station', 'shopping_mall']"
"ZUS Coffee – Taman Sutera Utama, Skudai","No 67GF) Jalan Sutera Tanjung 8/3, Taman Sutera Utama, 81300 Skudai, Johor",1.5159658,103.6679888,,61,JOHOR BAHRU,JOHOR,"['transit_station', 'university', 'shopping_mall']"
"ZUS Coffee – Pekan Langkap, Perak","No.35 (Ground Floor), Jalan Lorong 1, Perumahan Awam Langkap II, 36700 Langkap, Perak.",4.078661,101.1513,,72,DAERAH HILIR PERAK,PERAK,"['transit_station', 'gas_station']"
ZUS Coffee – Sabak Bernam,"No.100 (Ground Floor), Jalan Menteri, Pekan Sabak, 45200 Sabak Bernam, Selangor",3.7651852,100.9831638,,54,SABAK BERNAM,SELANGOR,"['transit_station', 'gas_station', 'shopping_mall']"
ZUS Coffee – Kerteh,"Lot 50082 (GF), Kg Baru Kertih, 24300 Kerteh, Terengganu",4.424558,103.437221,,7,KEMAMAN,TERENGGANU,[]
"ZUS Coffee – Bukit Setongkol, Kuantan","No.A11 (GF), Lorong Cenderawasih 1, Taman Tunas Makmur, Bukit Setongkol, 25200 Kuantan, Pahang.",3.8053845,103.2999542,,81,DAERAH KUANTAN,PAHANG,"['transit_station', 'gas_station', 'shopping_mall']"
"ZUS Coffee – Jalan Kebun Nenas, Klang","No 47-G Jalan Kebun Nenas 7A/KS8, Bandar Putera 2, 41200 Klang, Selangor",2.960288,101.517554,,39,KLANG,SELANGOR,[]
"ZUS Coffee – Bandar Baru Samariang, Kuching","Bandar Baru Samariang, Ground Floor, Sublot 34 (Survey Lot 7672), Salak Land District, Jalan Sultan Tengah, Petra Jaya, 93050 Kuching, Sarawak.",1.6305265,110.3396082,,107,KUCHING,SARAWAK,[]
ZUS Coffee – Taiping Sentral Mall,"GPS-06, Ground Floor, Taiping Sentral Mall, 36, Jalan Istana Larut, 34000 Taiping, Perak",4.8658188,100.7312078,,71,DAERAH LARUT MATANG,PERAK,"['transit_station', 'gas_station', 'shopping_mall']"
"ZUS Coffee – Timur Bay Beach Resort, Kuantan","TR-16, Timur Bay @ Balok, Jalan Kuantan – Kemaman, 26100 Kuantan, Pahang.",3.9015328,103.3645744,,81,DAERAH KUANTAN,PAHANG,"['transit_station', 'shopping_mall']"
"ZUS Coffee DT – Jalan Rock, Kuching","Lot 365, Jalan Rock, Min Chu Garden, 93200 Kuching, Sarawak",1.5260815,110.3417678,,107,KUCHING,SARAWAK,"['university', 'gas_station', 'shopping_mall']"
"ZUS Coffee – Karpal Singh Drive, Penang","Lot 9, Maritime, Karpal Singh Dr, 11600 Jelutong, Penang",5.3977195,100.3294007,,15,TIMOR LAUT,PULAU PINANG,"['transit_station', 'shopping_mall']"
ZUS Coffee – Design Village Outlet Mall,"G-57, Design Village Outlet Mall, 733, Jalan Cassia Barat 2, Bandar Cassia, 14110 Simpang Ampat, Pulau Pinang",5.2440117,100.4382786,,14,SEBERANG PERAI SELATAN,PULAU PINANG,"['gas_station', 'shopping_mall']"
ZUS Coffee – Menara TH Perdana,"Unit L02,Tingkat Bawah, Jln Sultan Ismail, Chow Kit, 50250 Kuala Lumpur, Wilayah Persekutuan Kuala Lumpur",3.1604706,101.6962093,,52,KUALA LUMPUR,WP KUALA LUMPUR,"['transit_station', 'university', 'gas_station', 'shopping_mall']"
"ZUS Coffee – Jalan Sultan Yahya Petra, Lundang, KB","Lot 2128(GF), Jalan Sultan Yahya Petra, 15200 Kota Bharu, Kelantan",6.1051869,102.2599188,,45,KOTA BHARU,KELANTAN,"['university', 'gas_station']"
"ZUS Coffee – Bandar Baru Jelawat, Bachok","PT 4478 (GF), Bandar Baru Jelawat, Mukim Rusa, 16070 Jelawat, Bachok, Kelantan.",6.0120744,102.3811717,,46,BACHOK,KELANTAN,"['gas_station', 'shopping_mall']"
ZUS Coffee – MRT Bandar Utama,"MRT Bandar Utama (Kajang Line), Station Concourse area, Persiaran Bandar Utama, Bandar Utama, 47800 Petaling Jaya, Selangor.",3.1466959,101.6187457,,36,PETALING,SELANGOR,"['transit_station', 'gas_station', 'shopping_mall']"
ZUS Coffee – Centrepoint Sabah Shopping Mall,"G75C, Centrepoint Sabah Shopping Mall, Lorong Centre Point, Pusat Bandar Kota Kinabalu, 88000 Kota Kinabalu, Sabah",5.9779246,116.0720678,,103,WEST COAST SOUTH,SABAH,"['university', 'gas_station', 'shopping_mall']"
"ZUS Coffee – Sentosa Parade, Kuching","Sentosa Parade, Ground Floor, Sublot No. 69 of Block B held under Parent Lot 329 and 332 of Block 46, 93250 Kuching, Sarawak",1.4809038,110.3070512,,107,KUCHING,SARAWAK,[]
ZUS Coffee – Universiti Sains Malaysia (Cabin In The Woods),"Cabin B (Cabin By The Woods), Bangunan G28, Universiti Sains Malaysia, 11800 USM, Pulau Pinang.",5.35606,100.294125,,15,TIMOR LAUT,PULAU PINANG,"['transit_station', 'university', 'shopping_mall']"
ZUS Coffee – MYDIN Parit Buntar,"Lot G-09 (Ground Floor), Mydin Mall Parit Buntar, Kerian Sentral Mall, Lot 23252, Jalan Sekolah, 34200 Parit Buntar, Perak.",5.1285567,100.4825592,,69,DAERAH KERIAN,PERAK,"['transit_station', 'shopping_mall']"
ZUS Coffee TR – Seremban RSA SouthBound (SB),"Unit 3 (Food Truck), Seremban RSA Southbound, North-South Expy, 71900 Negeri Sembilan",2.7631969,101.8316024,,2,SEREMBAN,NEGERI SEMBILAN,['gas_station']
"ZUS Coffee – Micasa Shoppes, Jalan Tun Razak","Lot G.11 & Mezzanine, Micasa Shoppes, 368A, Jln Tun Razak, Taman U Thant, 55000 Kuala Lumpur, Wilayah Persekutuan",3.1568425,101.7221359,,52,KUALA LUMPUR,WP KUALA LUMPUR,"['transit_station', 'university', 'gas_station', 'shopping_mall']"
"ZUS Coffee – Jalan Dato Sheikh Ahmad, Seremban","No.13 (Ground Floor), Jalan Dato Sheikh Ahmad, 70000 Seremban, Negeri Sembilan.",2.723529,101.9392516,,2,SEREMBAN,NEGERI SEMBILAN,"['transit_station', 'university', 'gas_station', 'shopping_mall']"
"ZUS Coffee – Universiti Tunku Abdul Rahman, Kampar (Student Pavilion I)","C109 & C110 (Upper Ground Floor), Student Pavilion I Universiti Tunku Abdul Rahman (Kampar Campus)",4.3372431,101.1423787,,77,DAERAH KAMPAR,PERAK,['university']
"ZUS Coffee – Tmn Scientex Utama, Senai","No 504(GF) Persiaran Scientex Utama 1, Taman Scientex Utama, 81400 Senai, Johor.",1.5845352,103.6491233,,63,KULAI,JOHOR,"['transit_station', 'gas_station']"
"ZUS Coffee – Pengkalan Chepa, Kelantan","PT1230 (GF), Jalan Pengkalan Chepa, Taman Bendahara 16100 Kota Bharu, Kelantan.",6.1642741,102.2799891,,45,KOTA BHARU,KELANTAN,"['university', 'gas_station', 'shopping_mall']"
ZUS Coffee – Triang Sentral,"No. 32(GF) , Jalan Sentral Triang 6, Triang Sentral, 28300 Triang, Pahang.",3.2597255,102.4364798,,86,DAERAH BERA,PAHANG,"['gas_station', 'shopping_mall']"
"ZUS Coffee – Bandar Baru Pasir Puteh, Kelantan","PT3032 (GF), Kg Bonggol Kerian, Bandar Baru Pasir Puteh 16800 Pasir Puteh, Kelantan.",5.8283272,102.4024782,,48,PASIR PUTEH,KELANTAN,"['gas_station', 'shopping_mall']"
ZUS Coffee – Wisma TH Plaza Sentral,"L-01B, Jalan Stesen Sentral 5, Kuala Lumpur Sentral, 50470 Kuala Lumpur",3.1326449,101.684894,,52,KUALA LUMPUR,WP KUALA LUMPUR,"['transit_station', 'university', 'gas_station', 'shopping_mall']"
"ZUS Coffee – Bidor, Perak","No.8 (Ground Floor), PT 2324, Jalan Persatuan, 35500 Bidor, Perak.",4.1133646,101.2872988,,78,DAERAH BATANG PADANG,PERAK,"['transit_station', 'university', 'gas_station', 'shopping_mall']"
"ZUS Coffee – Pertama Complex, Kuala Lumpur","Kiosk No. 3, Kompleks Pertama, Jalan Tuanku Abdul Rahman, 50100 Kuala Lumpur",3.1539317,101.6965237,,52,KUALA LUMPUR,WP KUALA LUMPUR,"['transit_station', 'university', 'gas_station', 'shopping_mall']"
"ZUS Coffee – Garden City, Tawau","Lot No B1.23.0 (Ground Floor), Block B, Garden City KM 5, Jalan Apas, 91000 Tawau, Sabah",4.2518857,117.8970205,,101,TAWAU,SABAH,"['gas_station', 'shopping_mall']"
"ZUS Coffee – Kubota Sentral, Tawau","LOT NO J4, MPT NO.47-0 (GROUND FLOOR), KUBOTA SENTRAL, JALAN CHONG THEIN VUN 91000 TAWAU, SABAH",4.2554802,117.9110493,,101,TAWAU,SABAH,"['university', 'gas_station', 'shopping_mall']"
"ZUS Coffee – Larkin Jaya, JB","No 7(GF) Jalan Jalan Geroda 2/1, Larkin Jaya, 80350 Johor Bahru, Johor.",1.4952895,103.7413724,,61,JOHOR BAHRU,JOHOR,"['transit_station', 'university', 'gas_station', 'shopping_mall']"
"ZUS Coffee – Taman Cahaya Kota Puteri, Masai","No 03(GF) Jalan Kota 1, Taman Cahaya Kota Puteri, 81750 Masai, Johor.",1.491101,103.8429533,,61,JOHOR BAHRU,JOHOR,"['transit_station', 'shopping_mall']"
ZUS Coffee – Langkawi Cenang Plaza,"Pantai Cenang, Lot 2606, Cenang Plaza Beach Hotel, Jalan Pantai Cenang, Mukim Kedawang, 07000 Langkawi, Kedah Darul Aman",6.290533,99.727354,,21,DAERAH LANGKAWI,KEDAH,['shopping_mall']
"ZUS Coffee – Pekan Kapar, Klang","No. 228 (Ground Floor), Jalan Besar KU/13, Pekan Kapar, 42200 Kapar, Selangor",3.1379946,101.3719882,,39,KLANG,SELANGOR,"['transit_station', 'university', 'gas_station']"
ZUS Coffee – Pekan Baru Baling,"No.102(GF),Persisiran Kota 4/5, Kota Baling Jaya, 09100 Baling Kedah.",5.6061448,100.8523167,,27,DAERAH BALING,KEDAH,['gas_station']
"ZUS Coffee – T2@Apas, Tawau","NO. 18, LOT 35,T2@APAS,JALAN T2-A, MILE 1,JALAN APAS 91000 TAWAU, SABAH.",4.2514368,117.8970826,,101,TAWAU,SABAH,"['gas_station', 'shopping_mall']"
"ZUS Coffee – Jalan Gurney, Bahau","No. 133 (Ground Floor), Jalan Gurney, 72100 Bahau, Negeri Sembilan.",3.1679673,101.7211992,,52,KUALA LUMPUR,WP KUALA LUMPUR,"['transit_station', 'university', 'gas_station', 'shopping_mall']"
ZUS Coffee – Universiti Malaysia Terengganu (Kompleks Siswa),"Lot 021, Aras Bawah Kompleks Siswa Universiti Malaysia Terengganu 21030 Kuala Nerus, Terengganu",5.4052862,103.0876935,,12,KUALA NERUS,TERENGGANU,"['transit_station', 'university']"
"ZUS Coffee – Sri Rampai, Setapak","No.39 (Ground Floor), Jalan 45/26 Taman Sri Rampai, 53300 Kuala Lumpur.",3.1949167,101.7324024,,52,KUALA LUMPUR,WP KUALA LUMPUR,"['transit_station', 'university', 'gas_station', 'shopping_mall']"
ZUS Coffee – Bloomsvale Shopping Gallery,"G-018, Level Ground Floor, Bloomsvale Shopping Gallery, 137, Jalan Puchong, 58200 Kuala Lumpur, Wilayah Persekutuan Kuala Lumpur",3.0757007,101.660875,,52,KUALA LUMPUR,WP KUALA LUMPUR,"['transit_station', 'gas_station', 'shopping_mall']"
ZUS Coffee – Bandar Mahkota Cheras,"GK-01, BMC Mall. Jalan Temenggung 21/9, Bandar Mahkota Cheras, 43200 Cheras, Selangor.",3.0549776,101.7878674,,34,ULU LANGAT,SELANGOR,"['transit_station', 'gas_station', 'shopping_mall']"
ZUS Coffee – KL Traders Square,"51-G, KLTS, NO. 99, JALAN GOMBAK, SETAPAK, 53000, KUALA LUMPUR",3.2032713,101.7034576,,52,KUALA LUMPUR,WP KUALA LUMPUR,"['transit_station', 'gas_station', 'shopping_mall']"
"ZUS Coffee – Bandar Kinrara 5, Puchong","No 10(GF), Jalan BK 5A/2C, Bandar Kinrara 5, 47180 Puchong, Selangor",3.0474434,101.646313,,36,PETALING,SELANGOR,"['transit_station', 'shopping_mall']"
ZUS Coffee – KPJ Kajang Specialist Hospital,"KPJ Kajang Specialist Hospital, Jalan Cheras, Kampung Sungai Kantan, 43000 Kajang, Selangor.",2.9999093,101.7857178,,34,ULU LANGAT,SELANGOR,"['transit_station', 'gas_station']"
ZUS Coffee – Taman Ara Jaya,"21, Jalan Ara Jaya, Taman Ara Jaya, 13310 Tasek Gelugor, Pulau Pinang",5.4381145,100.5137541,,51,SEBERANG PERAI UTARA,PULAU PINANG,['shopping_mall']
ZUS Coffee – Greentown Business Centre,"No.21 (Ground Floor), Persiaran Greentown 8, Pusat Perdagangan Greentown, 30450 Ipoh, Perak.",4.5997479,101.0956735,,68,DAERAH KINTA,PERAK,"['transit_station', 'university', 'gas_station', 'shopping_mall']"
ZUS Coffee – Kuala Kubu Baru,"No.18(GF), Jalan Mat Kilau, Pekan Kuala Kubu Bharu, 44000 Kuala Kubu Baru, Selangor",3.5631559,101.658961,,35,ULU SELANGOR,SELANGOR,[]
"ZUS Coffee – Taman Mutiara Mas, Skudai","No 18(GF) Jalan Mutiara 1/1, Taman Mutiara Mas, 81300 Skudai, Johor.",1.5153544,103.6325187,,61,JOHOR BAHRU,JOHOR,"['transit_station', 'university', 'gas_station', 'shopping_mall']"
"ZUS Coffee – Jalan Kenanga Bandar Indahpura, Kulai","No 184(GF) Jalan Kenanga 29/4, Bandar Indahpura, 81000 Kulai, Johor",1.6420816,103.6186672,,63,KULAI,JOHOR,"['transit_station', 'university', 'gas_station', 'shopping_mall']"
"ZUS Coffee – Menara Axis, Petaling Jaya","Grd-05, Ground Floor, Menara Axis, No 2, Jalan 51A/ 223,46100 Petaling Jaya, Selangor",3.1031466,101.6389773,,36,PETALING,SELANGOR,"['transit_station', 'university', 'gas_station', 'shopping_mall']"
ZUS Coffee – Bandar Universiti Pagoh,"No. 17-01 (Ground Floor), Jalan Sarjana 8, Pusat Perniagaan Presint Sarjana, Bandar Universiti Pagoh, 84600 Pagoh, Muar, Johor Darul Ta�zim",2.149223,102.7721509,,59,MUAR,JOHOR,"['transit_station', 'university', 'gas_station']"
ZUS Coffee – Central I-City,"Lot L1-10A, Level One, Central I-City, No. 1, Persiaran Multimedia, Seksyen 7, Jalan Plumbum 7/102, I-City, 40000 Shah Alam, Selangor",3.0624082,101.4817408,,36,PETALING,SELANGOR,"['transit_station', 'gas_station', 'shopping_mall']"
ZUS Coffee – Taman Sri Muda,"No.16-G (Ground Floor), Jalan Murni 25/61, Taman Sri Muda, 40400 Shah Alam, Selangor",3.0327538,101.5365242,,39,KLANG,SELANGOR,"['transit_station', 'university', 'gas_station', 'shopping_mall']"
"ZUS Coffee – Alam Avenue 2, Shah Alam Seksyen 16","C-15-G, Jalan Serai Wangi L 16/L, Seksyen 16, Alam Avenue 2, 40200 Shah Alam, Selangor",3.0579274,101.4906947,,39,KLANG,SELANGOR,"['transit_station', 'university', 'gas_station', 'shopping_mall']"
"ZUS Coffee – Berek 12, Kota Bharu","PT 2300-A (GF), Jalan Abdul Kadir Adabi, Desa Pondok Indah 15200 Kota Bharu, Kelantan.",6.1250346,102.2539176,,45,KOTA BHARU,KELANTAN,"['university', 'shopping_mall']"
ZUS Coffee – Kuchai Entrepreneurs Park,"No. 29 (Ground Floor), Jalan 1/116 B, Off, Jalan Kuchai Lama, Kuchai Entrepreneurs Park, 58200 Kuala Lumpur.",3.0862199,101.6898601,,52,KUALA LUMPUR,WP KUALA LUMPUR,"['transit_station', 'university', 'gas_station', 'shopping_mall']"
"ZUS Coffee – Jalil Link 1, Bukit Jalil","No.20(GF), Jalan Jalil Jaya 2, Jalil Link, Bukit Jalil 57000 WP Kuala Lumpur",3.0585255,101.6737658,,52,KUALA LUMPUR,WP KUALA LUMPUR,"['transit_station', 'university']"
ZUS Coffee – Sibu Town Square,"Lot 789, Block 5, Ground Floor, Sibu Town District, 29 Jalan Lau King Howe, 96000, Sibu, Sarawak",2.2920991,111.8202139,,114,SIBU,SARAWAK,['shopping_mall']
ZUS Coffee – The Spring Bintulu,"KG1, Ground Floor, The Spring Bintulu, Lot 4282, Jalan Tun Abdul Razak, 97000 Bintulu, Sarawak",3.1809174,113.0343812,,105,BINTULU,SARAWAK,"['university', 'gas_station', 'shopping_mall']"
"ZUS Coffee – Pines Square, Kuching","Pines Square Kuching, Ground Floor Plot 48, Lot 6728, Pines Square, Jalan Batu Kawa, 93250 Kuching",1.5139767,110.3162249,,107,KUCHING,SARAWAK,['gas_station']
ZUS Coffee – Sego Precinct 1,"Lot G1, Jalan Kulas, 93400 Kuching, Sarawak",1.5544374,110.3319862,,107,KUCHING,SARAWAK,"['transit_station', 'university', 'shopping_mall']"
ZUS Coffee – SHELL S2 Height,"PT37328, Jalan Rimbun Indah 2, Seremban 2, 70300 Seremban, Negeri Sembilan",2.7135175,101.8887609,,2,SEREMBAN,NEGERI SEMBILAN,"['gas_station', 'shopping_mall']"
ZUS Coffee – Menara Technip Energies,"Menara Technip Energies, 38, Jalan Inai, Imbi, 55100 Kuala Lumpur, Federal Territory of Kuala Lumpur",3.1452556,101.7206348,,52,KUALA LUMPUR,WP KUALA LUMPUR,"['transit_station', 'gas_station', 'shopping_mall']"
"ZUS Coffee – Emart Tabuan Jaya, Kuching","Emart Tabuan Jaya, Lot G06 & G07, Ground Floor, Commercial Centre, No 1, Tabuan Tranquility, Jalan Canna, 93350 Kuching, Sarawak",1.5160837,110.3865083,,107,KUCHING,SARAWAK,"['gas_station', 'shopping_mall']"
"ZUS Coffee – Jakel Mall, Kuala Lumpur","Lot SC.02 & SC.03, Jakel Mall, Lot 159, Jakel Square Off, Jalan Munshi Abdullah, City Centre, 50100 Kuala Lumpur",3.146642,101.6958449,,52,KUALA LUMPUR,WP KUALA LUMPUR,"['transit_station', 'university', 'shopping_mall']"
"ZUS Coffee – Anggun City, Rawang","Lot 40-1, Pusat Komersial Anggun City, 1, Jalan Anggun City 1, Taman Anggun, 48000 Rawang, Selangor",3.3174164,101.5360432,,37,GOMBAK,SELANGOR,['shopping_mall']
"ZUS Coffee – Olive Business Park, Seri Kembangan","No 36 (LG), Jalan BS 1/3, Pusat Perdagangan Olive Hill, Taman Bukit Serdang Seksyen 1, 43300 Seri Kembangan, Selangor.",3.0130103,101.6959612,,36,PETALING,SELANGOR,"['transit_station', 'university']"
ZUS Coffee – KSL City Mall,"GF-S04b, KSL City Mall, 33, Jalan Seladang, Taman Abad, 80250 Johor Bahru, Johor",1.4858456,103.762422,,61,JOHOR BAHRU,JOHOR,"['transit_station', 'university', 'gas_station', 'shopping_mall']"
ZUS Coffee – Pusat Perniagaan Jasin,"JC2353 (Ground Floor) Jalan PPJ 2, Pusat Perniagaan Jasin, 77000 Jasin Melaka",2.3116713,102.4284972,,18,JASIN,MELAKA,"['transit_station', 'gas_station', 'shopping_mall']"
ZUS Coffee – Bukit Tinggi 1,"No.26-G, Lorong Batu Nilam 3a, Bandar Bukit Tinggi 41200 Klang",3.0086592,101.4345441,,39,KLANG,SELANGOR,['gas_station']
ZUS Coffee – CALTEX Eco Ardence,"No. 2, Jalan Eco Ardence U12/36, Seksyen U12 40170, Shah Alam, Selangor",3.0889457,101.4776823,,36,PETALING,SELANGOR,['gas_station']
"ZUS Coffee – Jalan Seri Mas 1, Hulu Langat","No.33 (Ground Floor), Jalan Seri Mas 1, Taman Seri Emas, 43100 Hulu Langat, Selangor.",3.0975572,101.7996779,,34,ULU LANGAT,SELANGOR,"['transit_station', 'gas_station', 'shopping_mall']"
"ZUS Coffee – Pekan Gerik, Perak","No.14 (Ground Floor), Jalan Bija Di Raja, Pekan Gerik, 33300 Perak.",5.430094,101.1284734,,73,DAERAH HULU PERAK,PERAK,"['transit_station', 'gas_station', 'shopping_mall']"
ZUS Coffee – Kluang Mall,"Lot 1K-08a, First Floor, Kluang Mall, Jln Rambutan, Taman Suria, 86000 Kluang, Johor",2.0400737,103.3205798,,62,KLUANG,JOHOR,"['transit_station', 'university', 'gas_station', 'shopping_mall']"
ZUS Coffee – Pekan Semenyih,"No.40 (Ground Floor), Jalan Pasar Baru, Pekan Semenyih, 43500 Semenyih, Selangor.",2.9462041,101.846468,,34,ULU LANGAT,SELANGOR,"['transit_station', 'university', 'gas_station', 'shopping_mall']"
"ZUS Coffee – Hutan Melintang, Perak","No.8 (Ground Floor), Lorong Lagenda 8 (BDI38/50), Medaniaga Lagenda, 36400 Hutan Melintang, Perak Darul Ridzuan.",3.8855275,100.9355158,,79,DAERAH BAGAN DATUK,PERAK,['university']
"ZUS Coffee – Riverfront City, Sungai Petani","No. 191, Jalan Mawar 3/2, Taman Pekan Baru, 08000 Sungai Petani, Kedah",5.641054,100.482193,,24,DAERAH KUALA MUDA,KEDAH,"['transit_station', 'university', 'shopping_mall']"
ZUS Coffee – Solaris Mont Kiara,"Lot K-OG-14, Soho KL Mont Kiara, No. 2, Jalan Solaris, Solaris Mont Kiara, 50480, Wilayah Persekutuan Kuala Lumpur",3.1751772,101.6603153,,52,KUALA LUMPUR,WP KUALA LUMPUR,"['transit_station', 'university', 'gas_station', 'shopping_mall']"
"ZUS Coffee – Cyberview 23A, Cyberjaya","Cyberview 23A, Persiaran APEC Cyber 6, 63000 Cyberjaya Selangor",2.914418,101.658493,,38,SEPANG,SELANGOR,['transit_station']
ZUS Coffee – Johor Premium Outlet (Food Court),"No. 28, Johor Premium Outlet, Jalan Premium Outlets, Bandar Indahpura, 81000 Kulai, Johor",1.6028601,103.6215983,,63,KULAI,JOHOR,['shopping_mall']
ZUS Coffee – Monash University Malaysia,"3124C, Lepak Place, Monash University Malaysia, Jalan Lagoon Selatan, 47500 Bandar Sunway, Selangor Darul Ehsan",3.0649887,101.6009426,,36,PETALING,SELANGOR,"['transit_station', 'university', 'gas_station', 'shopping_mall']"
ZUS Coffee – Semua House,"GF.04, Ground Floor, Semua House, Jalan Bunus 6, City Centre, 50100 Kuala Lumpur, Wilayah Persekutuan Kuala Lumpur",3.1549859,101.6972144,,52,KUALA LUMPUR,WP KUALA LUMPUR,"['transit_station', 'university', 'gas_station', 'shopping_mall']"
ZUS Coffee – Southville City,"A�G�09 (Ground Floor), Savanna Lifestyle Retail Jalan BBLS 2, Bandar Baru Lembah Selatan, 43800 Dengkil, Selangor",2.9032814,101.7638013,,38,SEPANG,SELANGOR,['shopping_mall']
ZUS Coffee – Sekinchan,"No.15 (Ground Floor), Jalan Peria, Pekan Sekinchan, 45400 Sekinchan, Selangor",3.507552,101.1028938,,54,SABAK BERNAM,SELANGOR,"['gas_station', 'shopping_mall']"
"ZUS Coffee – Taman Pulai Mutiara, JB","No 21(GF) Jalan Pulai Mutiara 9/6, Taman Pulai Mutiara, 81300 Johor Bahru, Johor.",1.5320652,103.5820175,,61,JOHOR BAHRU,JOHOR,['transit_station']
ZUS Coffee – Kompleks PKNS Shah Alam,"Lot G-6 (Ground Floor), Kompleks PKNS Shah Alam, Persiaran Tasik, Seksyen 14, 40000 Shah Alam, Selangor",3.0706118,101.517169,,36,PETALING,SELANGOR,"['transit_station', 'university', 'shopping_mall']"
ZUS Coffee – One Krubong,"NO. 67 (GROUND FLOOR), JALAN SATU KRUBONG, TAMAN SATU KRUBONG, 75260 MELAKA",2.3016437,102.2512373,,19,MELAKA TENGAH,MELAKA,['shopping_mall']
ZUS Coffee – Aeon Mall Bukit Mertajam,"KG02, Lower Ground Floor, Aeon Mall Bukit Mertajam, Lot No. 30908, Jalan Rozhan, Alma, 14000 Bukit Mertajam, Pulau Pinang",5.3210688,100.4775282,,17,SEBERANG PERAI TENGAH,PULAU PINANG,"['transit_station', 'university', 'gas_station', 'shopping_mall']"
ZUS Coffee – Shah Alam Seksyen 18,"15G (Ground Floor), Jalan Pinang B 18/B, Seksyen 18, 40200 Shah Alam, Selangor",3.0448011,101.518035,,36,PETALING,SELANGOR,"['transit_station', 'university', 'gas_station', 'shopping_mall']"
ZUS Coffee – Pantai Remis,"No. 40 (Ground Floor), Jalan Sungai Batu, Kampung Mangsa Ribut, 34900 Pantai Remis, Perak",4.4471068,100.6272477,,80,DAERAH MANJUNG,PERAK,"['transit_station', 'gas_station', 'shopping_mall']"
ZUS Coffee – Boulevard Shopping Mall Kuching,"G-B-17, Ground Floor, Mall 1, Boulevard Shopping Mall, Jalan Datuk Tawi Sli, Taman Seng Goon, 93250 Kuching, Sarawak",1.5096009,110.3359475,,107,KUCHING,SARAWAK,"['university', 'gas_station', 'shopping_mall']"
ZUS Coffee – SAMA Square,"G-02 & 02(E), Ground Floor, Same Square, Jalan 1/23c, Kampung Baru Air Panas, 53200 Kuala Lumpur, Wilayah Persekutuan Kuala Lumpur.",3.194148,101.7202435,,52,KUALA LUMPUR,WP KUALA LUMPUR,['transit_station']
ZUS Coffee – AEON Mall Nilai,"KS05, Second Floor, Aeon Mall Nilai, 2, Persiaran Pusat Bandar, Putra Point, 71800 Nilai, Negeri Sembilan",2.8174815,101.7914185,,2,SEREMBAN,NEGERI SEMBILAN,"['transit_station', 'university', 'shopping_mall']"
ZUS Coffee – MYDIN Bukit Mertajam,"Lot No.GFNB-11 (Ground Floor), MYDIN Bukit Mertajam, LOT-LOT 3424, 1619, 1611, 1511, 1186 & 850, Mukim 06, Jalan Baru, 13600 Seberang Perai Tengah, Pulau Pinang.",5.3686387,100.4152023,,17,SEBERANG PERAI TENGAH,PULAU PINANG,"['transit_station', 'gas_station', 'shopping_mall']"
"ZUS Coffee – Taman Bukit Perdana 2, Batu Pahat","No 2-13 (GF) Jalan Susur Perdana Tengah, Taman Bukit Perdana 2, 83000 Batu Pahat, Johor.",1.842528,102.9516838,,58,BATU PAHAT,JOHOR,['university']
ZUS Coffee – GM Klang,"A-G-13, Ground Floor, Wholesale City Gm Klang, Jalan Kasuarina 1, Bandar Botanik, 41200 Klang, Selangor",2.991067,101.4500001,,39,KLANG,SELANGOR,"['transit_station', 'gas_station', 'shopping_mall']"
ZUS Coffee – Taman Seri Rembau,"376-G, Jalan Dato Lela Maharaja, Taman Seri Rembau, 71300 Rembau, Negeri Sembilan",2.5911852,102.0995434,,1,REMBAU,NEGERI SEMBILAN,"['transit_station', 'gas_station']"
"ZUS Coffee – Prima Saujana, Kajang","No.20 (GF), Jalan Prima Saujana 1/1A, Prima Saujana 43000 Kajang Selangor.",3.0069149,101.8058172,,34,ULU LANGAT,SELANGOR,"['transit_station', 'university', 'gas_station', 'shopping_mall']"
ZUS Coffee – Jalan Tampoi Susur,"No 37(GF) Jalan Tampoi Susur 1, 81200 Johor Bahru, Johor.",1.5201416,103.7511636,,61,JOHOR BAHRU,JOHOR,"['transit_station', 'university', 'shopping_mall']"
ZUS Coffee – Bandar Baru Tumpat,"PT3817 (GF), Jalan Bandar Tumpat 16200 Tumpat, Kelantan",6.1925535,102.163948,,42,TUMPAT,KELANTAN,['shopping_mall']
ZUS Coffee – Batu Pahat Mall,"G-42, Ground Floor, Batu Pahat Mall, Jln Kluang, 83000 Batu Pahat, Johor",1.8638484,102.9620825,,58,BATU PAHAT,JOHOR,"['transit_station', 'gas_station', 'shopping_mall']"
"ZUS Coffee – Jalan Raja Omar, Sitiawan","No.51C (Ground Floor), Jalan Raja Omar, 32000, Sitiawan Perak.",4.216825,100.6978241,,80,DAERAH MANJUNG,PERAK,"['transit_station', 'university', 'gas_station', 'shopping_mall']"
"ZUS Coffee – Jalan Langgar, Alor Setar","No.58(GF), Jalan Langgar 05460 Alor Setar Kedah.",6.1171217,100.3774897,,22,DAERAH KOTA SETAR,KEDAH,"['transit_station', 'gas_station', 'shopping_mall']"
ZUS Coffee – AEON Mall Bukit Tinggi,"Lot F26, AEON Bukit Tinggi Shopping Centre, 1, Persiaran Batu Nilam 1, KS6, 41200, Selangor",2.9945103,101.4442067,,39,KLANG,SELANGOR,"['transit_station', 'university', 'shopping_mall']"
"ZUS Coffee – Sunway Boulevard 88, Iskandar Johor","Lot 36-01, Sunway Boulevard 88, Laman Niaga Sunway, Persiaran Medini 3, Sunway City Iskandar Puteri, 79250 Iskandar Puteri, Johor Darul Takzim",1.3946332,103.6346874,,61,JOHOR BAHRU,JOHOR,"['university', 'gas_station']"
ZUS Coffee – Kota Marudu,"Lot 3, Ground Floor, Block A, Jalan Goshen, 89107, Kota Marudu, Sabah",6.4818154,116.7616112,,98,KUDAT,SABAH,[]
"ZUS Coffee – Bukit Dahlia, Pasir Gudang","No. 8 (Ground Floor) , Jalan Sejambak 14, Taman Bukit Dahlia, 81700 Pasir Gudang, Johor",1.4790817,103.8936468,,61,JOHOR BAHRU,JOHOR,"['transit_station', 'university', 'shopping_mall']"
ZUS Coffee – Time Square Megamall Bintulu,"Lot No.47, Ground Floor, Time Square Megamall, 97000 Bintulu, Sarawak",3.1976581,113.0881295,,105,BINTULU,SARAWAK,['shopping_mall']
ZUS Coffee – Boulevard Shopping Mall Bintulu,"G-12 & G-13, Ground Floor, Boulevard Shopping Mall, 714, Jalan Tun Razak, 97000 Bintulu, Sarawak",3.1994458,113.0465957,,105,BINTULU,SARAWAK,['shopping_mall']
ZUS Coffee – G-Orange Mall Gua Musang,"GFC-09 & GFC-10, Ground Floor, Jalan Cengal, Bandar Utama, 18300, Kelantan",3.1467185,101.6119073,,36,PETALING,SELANGOR,"['transit_station', 'shopping_mall']"
ZUS Coffee – Genting Xintiandi Sales Gallery,"Genting Xintiandi Sales Gallery, Lot 10363, Genting Permai, 69000 Genting Highlands, Pahang",3.423978,101.7932011,,87,DAERAH BENTONG,PAHANG,"['transit_station', 'shopping_mall']"
"ZUS Coffee – Taman Tasek Jaya, Ipoh","No. 761 (Ground Floor), Jalan Kuala Kangsar, Taman Tasek Jaya, 31400 Ipoh Perak",4.6534729,101.1063623,,68,DAERAH KINTA,PERAK,"['transit_station', 'gas_station']"
ZUS Coffee – Shah Alam Seksyen 20,"No 18, Jalan Singa D 20/D, Seksyen 20, 40300 Shah Alam, Selangor",3.055165,101.5417725,,36,PETALING,SELANGOR,"['transit_station', 'gas_station']"
ZUS Coffee – You City III Cheras,"Lot no G-AP-8, Jalan Persiaran You City,Taman Suntex, 43200 Cheras, Selangor",3.0727891,101.7638749,,34,ULU LANGAT,SELANGOR,"['transit_station', 'university', 'shopping_mall']"
ZUS Coffee – Menara UOA Bangsar,"Lot LGF-8, Lower Ground Floor, 5, Jalan Bangsar Utama 1, Bangsar, 59000 Kuala Lumpur, Wilayah Persekutuan Kuala Lumpur",3.1277923,101.6782089,,52,KUALA LUMPUR,WP KUALA LUMPUR,"['transit_station', 'university', 'gas_station', 'shopping_mall']"
ZUS Coffee – CALTEX Lebuh SPA,"Lot 11723, Jalan Pe 1, Taman Paya Emas, 76450 Melaka, Malaysia",2.2853212,102.2043964,,19,MELAKA TENGAH,MELAKA,['gas_station']
"ZUS Coffee – TTDI Jaya, Shah Alam","No.33 (Ground Floor), Jalan Opera F U2/F, Taman TTDI Jaya, Seksyen U2, 40150 Shah Alam.",3.0986955,101.5558714,,36,PETALING,SELANGOR,"['transit_station', 'university', 'gas_station']"
ZUS Coffee – Universiti Teknologi Malaysia (Arked Meranti),"Lot G-15, Arked Meranti, Universiti Teknologi Malaysia, Skudai, Johor Darul Takzim",1.5597006,103.6337583,,63,KULAI,JOHOR,"['transit_station', 'university', 'shopping_mall']"
ZUS Coffee – Universiti Sultan Zainal Abidin (Laman Selera),"ZUS Coffee @ Laman Selera, Universiti Sultan Zainal Abidin, Kampus Gong Badak, 21300 Kuala Terengganu, Terengganu",5.3975616,103.0780128,,12,KUALA NERUS,TERENGGANU,['university']
ZUS Coffee – Citta Mall,"G-48 7 G-48A, Ground Floor, Citta Mall, 1, Jalan PJU 1a/48, Ara Damansara, 47301 Petaling Jaya, Selangor",3.1121867,101.5790712,,36,PETALING,SELANGOR,"['transit_station', 'shopping_mall']"
"ZUS Coffee – The Artiz, Johor Bahru","No.6(GF), Jalan Setia 3/12, Taman Setia Indah, 81100 Johor Bahru, Johor.",1.5766783,103.7585534,,61,JOHOR BAHRU,JOHOR,"['transit_station', 'gas_station', 'shopping_mall']"
ZUS Coffee – Pekan Sungkai,"18G, Jalan Sentral Sungkai 1, Taman Sungkai Perdana, 35600 Sungkai, Perak",4.0068187,101.3053799,,78,DAERAH BATANG PADANG,PERAK,"['transit_station', 'gas_station', 'shopping_mall']"
ZUS Coffee – Saradise Kuching,Ground Floor Lot 19717 Sl 39 Blk C1 Saradise Shophouses Jin Stutong 93350 Kuching Sarawak.,1.5036337,110.3600245,,107,KUCHING,SARAWAK,['transit_station']
"ZUS Coffee – Taman Sejati, Sungai Petani","No.25 (GF),Jalan Permatang Gedong Taman Sejati Indah 08000 Sungai Petani Kedah.",5.613192,100.4829565,,24,DAERAH KUALA MUDA,KEDAH,"['gas_station', 'shopping_mall']"
ZUS Coffee – Pusat Komersial Rasah Prima,"No.43G, Jalan Rasah Prima 3, Pusat Komersial Rasah Prima, 70300 Seremban, Negeri Sembilan.",2.6885237,101.9344444,,2,SEREMBAN,NEGERI SEMBILAN,['shopping_mall']
ZUS Coffee – Pekan Tapah,"No.53A Jalan Besar, 35000 Tapah, Perak.",4.1965329,101.2613082,,78,DAERAH BATANG PADANG,PERAK,"['transit_station', 'university', 'gas_station', 'shopping_mall']"
"ZUS Coffee – Cubic Botanical, Pantai Dalam","No. R2-1 (Lower Ground Floor), Residensi Rimba Pantai Dalam, No. 6, Jalan Pantai Sentral 3, Pantai Dalam, 59200 Kuala Lumpur",3.0934504,101.666571,,52,KUALA LUMPUR,WP KUALA LUMPUR,['transit_station']
ZUS Coffee – Kuala Nerang,"No. 18, Kompleks Kuala Nerang, Jalan Kuala Nerang, Pekan Baru, 06300 Kuala Nerang, Kedah.",6.2557094,100.6106878,,23,DAERAH PADANG TERAP,KEDAH,"['transit_station', 'gas_station', 'shopping_mall']"
ZUS Coffee – Boulevard Commercial Centre Miri,"Lot 2514, ground floor & 1st floor, block 5, Miri concession land, 98000 Miri, Sarawak",4.3915347,113.9856476,,109,MIRI,SARAWAK,"['transit_station', 'university', 'shopping_mall']"
ZUS Coffee – TTDI Grove Kajang,"No. 26, JALAN TTDI GROVE 1/1, 43000 KAJANG, SELANGOR",2.9974091,101.8126406,,34,ULU LANGAT,SELANGOR,"['transit_station', 'shopping_mall']"
"ZUS Coffee – Batu Berendam, Melaka","No 42, Ground Floor, Jalan Mutiara Melaka 2, Taman Mutiara Melaka, Batu Berendam, 75350 Hang Tuah Jaya, Melaka",2.2383661,102.2606104,,19,MELAKA TENGAH,MELAKA,['transit_station']
ZUS Coffee – Jenjarom,"No. 37 (Ground Floor), Jalan 2/1, Taman Seri Jaromas, 42600 Jenjarom",2.8750518,101.5023006,,32,KUALA LANGAT,SELANGOR,"['transit_station', 'university', 'gas_station', 'shopping_mall']"
ZUS Coffee – Suasana PjH Presint 2,"Unit A-G-R10 & A-G-R11, Block A, Suasana PjH, Jalan Tun Abdul Razak, Presint 2, 62100 Putrajaya",2.9255473,101.6871185,,53,PUTRAJAYA,WP PUTRAJAYA,['transit_station']
ZUS Coffee – Eastern Mall Siburan,"Lot 1964C – Block C, Eastern Mall Siburan, 9C72+CW, 94200 Siburan, Sarawak.",1.3635625,110.4023125,,113,SERIAN,SARAWAK,"['university', 'gas_station', 'shopping_mall']"
ZUS Coffee – Plaza Low yat,"Plaza Low Yat, Lot LG-04 & 05, Lower Ground Floor, 7, Jalan Bintang, Bukit Bintang, 55100 Kuala Lumpur, Wilayah Persekutuan Kuala Lumpur",3.1440548,101.7104545,,52,KUALA LUMPUR,WP KUALA LUMPUR,"['transit_station', 'university', 'gas_station', 'shopping_mall']"
ZUS Coffee – Guar Chempedak,"No 9, Kompleks Perniagaan Guar Utama, 08800 Guar Chempedak",5.8594329,100.4538717,,25,DAERAH YAN,KEDAH,['shopping_mall']
"ZUS Coffee – Selera Putra, Souq Putrajaya","Lot G-005, Selera Putra, Souq Putrajaya, Presint 1, 62000 Putrajaya",2.9344796,101.689796,,53,PUTRAJAYA,WP PUTRAJAYA,['transit_station']
ZUS Coffee – Plaza Shah Alam,"S19, Second Floor, Jalan Tengku Ampuan Zabedah E 9/E, Seksyen 9, 40100 Shah Alam, Selangor",3.0855276,101.5229119,,36,PETALING,SELANGOR,"['transit_station', 'university', 'shopping_mall']"
"ZUS Coffee – Vista Bangi, Jalan Reko","1-06 (Ground Floor) Vista Bangi, Jalan Reko, 43000 Kajang, Selangor.",2.9462408,101.7855027,,34,ULU LANGAT,SELANGOR,"['transit_station', 'gas_station']"
ZUS Coffee – Kipmall Bangi,"1K-03A, Level 1, No. 1 Jalan Medan Bangi Business Park Bangi Golf Resort) Off, Persiaran Kemajuan, Seksyen 6, 43650 Bandar Baru Bangi, Selangor",2.9528558,101.7573146,,34,ULU LANGAT,SELANGOR,"['transit_station', 'university', 'shopping_mall']"
ZUS Coffee – Universiti Malaya Centre for Continuing Education,"VIP Dining, Cyberview 23, Jalan Teknokrat 3, Cyber 4, 63000 Cyberjaya, Selangor",2.926345,101.655077,,38,SEPANG,SELANGOR,"['transit_station', 'university']"
Ready-To Zus – Holiday Inn Express Hotel KL,"Lot G01, Ground Floor, 84, Jalan Raja Chulan, Kuala Lumpur, 50200 Kuala Lumpur, Wilayah Persekutuan Kuala Lumpur",3.1507902,101.7086771,,52,KUALA LUMPUR,WP KUALA LUMPUR,"['transit_station', 'university', 'gas_station', 'shopping_mall']"
"ZUS Coffee – Klebang, Melaka","40, Ground Floor, Jalan Nirwana 2, Taman Nirwana, Batang Tiga, 76400, Melaka",2.2223443,102.1840002,,19,MELAKA TENGAH,MELAKA,['transit_station']
ZUS Coffee – PKT Logistic Batu Kawan,"No 1, Logistic Boulevard, One Auto Hub, Batu Kawan Industrial Park, 14110 Bandar Cassia, Penang.",5.270447,100.4196629,,14,SEBERANG PERAI SELATAN,PULAU PINANG,[]
ZUS Coffee – Pekan Ayer Tawar,"No.35 (GF), Jalan Besar, 32400, Ayer Tawar, Perak.",4.2407417,100.6808414,,80,DAERAH MANJUNG,PERAK,['gas_station']
"ZUS Coffee – Kampung Laut, Kuala Terengganu","PT 3632 Tingkat Bawah, Jalan Alam Mutiara 1/1, Alam Mutiara, Jalan Kg Laut, 21100 Kuala Terengganu Terengganu.",5.2790363,103.1422294,,13,KUALA TERENGGANU,TERENGGANU,['transit_station']
"ZUS Coffee – Bukit Rambai, Melaka","No 47, Jalan Rambai Jaya 29, Taman Rambai Jaya 75260 Melaka",2.2638154,102.1891373,,19,MELAKA TENGAH,MELAKA,"['gas_station', 'shopping_mall']"
ZUS Coffee – MSU Medical Centre,"Lot A01 (Ground Floor), MSU Medical Centre, University Drive, Off Persiaran Olahraga, Seksyen 13, 40100 Shah Alam, Selangor.",3.0767498,101.5530674,,36,PETALING,SELANGOR,"['transit_station', 'university', 'gas_station', 'shopping_mall']"
ZUS Coffee – Plaza Merdeka Kuching,"No. G-01, Ground Floor, Plaza Merdeka Shopping Centre, 88 Pearl Street, 93000 Kuching, Sarawak, Malaysia",1.5581425,110.3439812,,107,KUCHING,SARAWAK,"['transit_station', 'university', 'shopping_mall']"
ZUS Coffee – Bandar Mentakab,"No.131 (Ground Floor) Jalan Melati 28400 Mentakab, Pahang.",3.4845199,102.346917,,90,DAERAH TEMERLOH,PAHANG,"['transit_station', 'university', 'gas_station', 'shopping_mall']"
"ZUS Coffee – Tree Square, Tanjung Bungah","No. 88-G-A05, Jalan Sungai Kelian, 11200 Tanjong Bungah, Penang",5.4632806,100.2840652,,15,TIMOR LAUT,PULAU PINANG,"['transit_station', 'shopping_mall']"
"ZUS Coffee – Pusat Niaga Paka, Terengganu","49-G, PT 228, Jalan Besar, Pusat Niaga Paka, Kampung Cacar, 23100 Paka, Terengganu.",4.6360745,103.4369598,,11,DUNGUN,TERENGGANU,['university']
ZUS Coffee – Alor Gajah,"KM 12-1 (Ground Floor), Jalan Perniagaan Jelatang 1, Pusat Perniagaan Jelatang, 78000 Alor Gajah, Melaka",2.3842974,102.2165775,,20,ALOR GAJAH,MELAKA,['transit_station']
ZUS Coffee – Muadzam Shah,"No. 25-G, Jalan Pms 3 1/1, Taman Perindustrian Muadzam Shah 3, 26700 Muadzam Shah, Pahang Darul Makmur.",3.0947226,103.0842957,,83,DAERAH PEKAN,PAHANG,['university']
ZUS Coffee – Angsana Johor Bahru,"Lot 1.22, First Floor, Angsana Johor Bahru Mall, Skudai Lbh, Pusat Bandar Tampoi, 81200 Johor Bahru, Johor",1.4957614,103.7056613,,61,JOHOR BAHRU,JOHOR,"['transit_station', 'shopping_mall']"
ZUS Coffee – Bandar Teknologi Kajang,"No. G-8 (Ground Floor), Jalan 1/2, HILLPARK RESIDENCE, Seksyen 1 Bandar Teknologi Kajang, 43500 Semenyih, Selangor",2.9702123,101.828504,,34,ULU LANGAT,SELANGOR,"['transit_station', 'shopping_mall']"
ZUS Coffee – Menara VSQ Petaling Jaya,"B03, Ground Floor, VSQ@PJ City Centre, Jalan Utara, 46200 Petaling Jaya, Selangor",3.1071963,101.6399437,,36,PETALING,SELANGOR,"['transit_station', 'university', 'gas_station', 'shopping_mall']"
ZUS Coffee – Aeropod Commercial Square,"No. B-1-3 (Ground Floor), Aeropod Commercial Square, Jalan Aeropod, Off Jalan Kepayan, Sabah",5.9543214,116.0599597,,103,WEST COAST SOUTH,SABAH,"['gas_station', 'shopping_mall']"
ZUS Coffee – Damansara Damai,"L-013 (Ground Floor), Vista Shop, Jalan PJU 10/2A, Damansara Damai,47830 Petaling Jaya, Selangor",3.1951016,101.5932301,,36,PETALING,SELANGOR,"['transit_station', 'university', 'gas_station', 'shopping_mall']"
ZUS Coffee – Tangkak Johor,"No. 131 (Ground Floor), Jalan Muar, 84900 Tangkak Johor",2.261147,102.536006,,64,TANGKAK,JOHOR,"['transit_station', 'gas_station']"
ZUS Coffee – SkyAvenue,"Lot No.T2A-39A & 40 of Level T2A, SkyAvenue, Genting Highlands Resort, 69000 Genting Highlands, Pahang",3.4239007,101.7938018,,87,DAERAH BENTONG,PAHANG,"['transit_station', 'shopping_mall']"
"ZUS Coffee – Taman Jerai Maju, Gurun","No.14 (GF), Jalan Jerai Maju 2, Taman Jerai Maju 08300 Gurun, Kedah.",5.8170186,100.4825478,,24,DAERAH KUALA MUDA,KEDAH,"['gas_station', 'shopping_mall']"
"ZUS Coffee – Simpang Empat Perdana, Kedah","B-1(Ground Floor), Susuran Lada 1, Simpang 4, Taman Simpang Perdana, 06650 Alor Setar, Kedah.",6.0179134,100.3844141,,22,DAERAH KOTA SETAR,KEDAH,[]
ZUS Coffee – AEON Mall Cheras Selatan,"KF3 & KF5, First Floor, Aeon Mall Cheras,�Selatan, Jalan Cheras Perdana Cheras, 43200,�Balakong, Selangor",3.0335152,101.7650236,,34,ULU LANGAT,SELANGOR,"['transit_station', 'shopping_mall']"
ZUS Coffee – Bandar Tasek Raja,"Lot 579 (GF) Bandar Tasek Raja 17000 Pasir Mas,Kelantan.",6.0285964,102.1306512,,43,PASIR MAS,KELANTAN,['transit_station']
"ZUS Coffee – Setia Prima, Setia Alam","8-1-2 (Ground Floor), Jalan Setia Prima P U13/P, Setia Alam, 40170 Shah Alam, Selangor",3.1000751,101.4446116,,36,PETALING,SELANGOR,"['transit_station', 'gas_station']"
"ZUS Coffee DT – SHELL Hutan Kampung, Alor Setar","HSM 20792, PT 9103, HUTAN KAMPUNG, BANDAR ALOR SETAR, 05150 KOTA SETAR, KEDAH",6.111811,100.375902,,22,DAERAH KOTA SETAR,KEDAH,[]
ZUS Coffee – Paya Bunga Square,"PK-02, Aras Bawah, Kompleks Paya Bunga Square, Jalan Masjid Abidin, 20100 Kuala Terengganu",5.3310209,103.1366439,,13,KUALA TERENGGANU,TERENGGANU,"['transit_station', 'university', 'shopping_mall']"
ZUS Coffee – Bandar Tanah Merah,"Pt 461-G Jalan Tasek 17500 Tanah Merah, Kelantan.",5.8082121,102.1491465,,49,TANAH MERAH,KELANTAN,"['transit_station', 'shopping_mall']"
ZUS Coffee – Canning II Ipoh,"No. 29 (GF), Hala Pusat Perdagangan Canning 1, Pusat Perdagangan Canning II, 30350 Ipoh, Perak.",4.6010526,101.1136978,,68,DAERAH KINTA,PERAK,"['transit_station', 'gas_station']"
ZUS Coffee – Sutera Mall,"L2-550k, Sutera Mall, Jalan Sutera Tanjung 8/4, 81300 Skudai, Johor",1.517129,103.6714742,,61,JOHOR BAHRU,JOHOR,"['transit_station', 'shopping_mall']"
ZUS Coffee – The Glenz @Glenmarie,"G-3B (Ground Floor), Subplace Boulevard Pusat Kormersil Vestland, No.6, Jalan Juruanalisis U1/35, Seksyen U1, 40150 Shah Alam, Selangor Darul Ehsan",3.0817081,101.5625773,,36,PETALING,SELANGOR,"['transit_station', 'gas_station']"
ZUS Coffee – Puchong Utama,"A-G-9 (Ground Floor), Block A, Dataran Puchong, Jalan PU 7/1, Taman Puchong Utama, 47140 Puchong, Selangor",2.9909128,101.6175562,,36,PETALING,SELANGOR,"['transit_station', 'university', 'shopping_mall']"
ZUS Coffee – PD Waterfront,"Kedai 2 (Glass House), PD Waterfront, 1-02-1, Persiaran Waterfront, 1st Mile, 71000 Port Dickson, Negeri Sembilan",2.5219036,101.8027087,,0,PORT DICKSON,NEGERI SEMBILAN,"['transit_station', 'gas_station', 'shopping_mall']"
ZUS Coffee – Taman Lumut Indah 2,"No. 10 (Ground Floor), Jalan Lumut Indah 2/1, Taman Lumut Indah 2, 32200 Lumut, Perak.",4.2085125,100.6379896,,80,DAERAH MANJUNG,PERAK,"['transit_station', 'shopping_mall']"
ZUS Coffee – Benoni Commercial Centre,"Lot 90, Ground Floor, Benoni Commercial Centre, Jalan Papar Spur, 89600 Papar Sabah",5.7026091,115.9344431,,103,WEST COAST SOUTH,SABAH,['shopping_mall']
ZUS Coffee – Sunway Pyramid,"Lot LG2.37, Level LG2, Sunway Pyramid, 3, Jalan PJS 11/15, Bandar Sunway, 47500 Petaling Jaya, Selangor",3.072776,101.605868,,36,PETALING,SELANGOR,"['transit_station', 'university', 'gas_station', 'shopping_mall']"
ZUS Coffee – CALTEX Simpang Gambang,"Lot 10759, Batu 18, Jalan Gambang, 26300 Kuantan, Pahang",3.706644,103.1004197,,81,DAERAH KUANTAN,PAHANG,"['transit_station', 'gas_station']"
ZUS Coffee – Setapak Central Mall,"GK-08, Ground Floor, 67, Jln Taman Ibu Kota, Taman Danau Kota, 53300 Kuala Lumpur, Wilayah Persekutuan",3.2053642,101.7200682,,52,KUALA LUMPUR,WP KUALA LUMPUR,"['transit_station', 'university', 'gas_station', 'shopping_mall']"
ZUS Coffee – City Mall Kota Kinabalu,"M-0-77 (S05),�Ground�Floor, Jln Lintas, 88300 Kota Kinabalu, Sabah",5.9907244,116.1182428,,103,WEST COAST SOUTH,SABAH,"['gas_station', 'shopping_mall']"
ZUS Coffee – Kepala Batas Pokok Sena,"No. 45, (Ground Floor), Persiaran Pokok Sena, Pusat Perniagaan Pokok Sena, 13220 Kepala Batas, Pulau Pinang",5.4897039,100.4567627,,51,SEBERANG PERAI UTARA,PULAU PINANG,"['transit_station', 'gas_station', 'shopping_mall']"
ZUS Coffee – The Exchange TRX,"Lot C.98.0, The Exchange TRX, Persiaran TRX, Tun Razak Exchange, 55188 Kuala Lumpur, Wilayah Persekutuan",3.1424073,101.7168132,,52,KUALA LUMPUR,WP KUALA LUMPUR,"['transit_station', 'shopping_mall']"
ZUS Coffee – Mesamall Nilai,"Persiaran Ilmu, Bandar Baru Nilai, 71800 Nilai, Negeri Sembilan",2.8287589,101.7886804,,2,SEREMBAN,NEGERI SEMBILAN,"['transit_station', 'university', 'gas_station']"
ZUS Coffee – Taman Sri Manja,"No.25, Jalan PJS 3/46, Taman Sri Manja, 46000 Petaling Jaya",3.0741539,101.6480496,,36,PETALING,SELANGOR,['transit_station']
ZUS Coffee – Eco Grandeur,"No 18-G (Ground Floor), Jalan Eco Grandeur 1/9A, Eco Granduer, 42300, Bandar Puncak Alam, Selangor",3.2323131,101.4506069,,33,KUALA SELANGOR,SELANGOR,"['university', 'gas_station']"
ZUS Coffee – Jaya Shopping Centre,"Lot G-01, Jaya Shopping Centre, Jalan 14/17, Seksyen 14, 46100 Petaling Jaya, Selangor",3.109189,101.6371808,,36,PETALING,SELANGOR,"['transit_station', 'university', 'shopping_mall']"
ZUS Coffee – Eco Majestic Semenyih,"Lot 47-1, Jalan Eco Majestic 10/1A, 43500 Semenyih, Selangor.",2.9013313,101.8350087,,34,ULU LANGAT,SELANGOR,['gas_station']
"ZUS Coffee – Gateway@KLIA2 (Departure Hall, Level 3)","Lot L3-44A, Level 3, gateway@KLIA2, Lbh KLIA, 43900 KLIA, Selangor",2.7440889,101.6856391,,38,SEPANG,SELANGOR,"['transit_station', 'shopping_mall']"
ZUS Coffee – Taman Chai Leng,"No 48, Ground Floor, Lebuh Kurau 3, Taman Chai Leng, 13700 Perai, Pulau Pinang",5.3857278,100.3917272,,17,SEBERANG PERAI TENGAH,PULAU PINANG,"['transit_station', 'gas_station', 'shopping_mall']"
"ZUS Coffee – Gateway@KLIA2 (Arrival Hall, Level 2)","Lot No. L2-90B, Level 2, gateway@KLIA2, Lbh KLIA, 43900 Klia, Selangor",2.7440889,101.6856391,,38,SEPANG,SELANGOR,"['transit_station', 'shopping_mall']"
ZUS Coffee – Balok Kuantan,"A23 (Ground Floor), Lorong Balok Darat 13, 26100 Kuantan, Pahang Darul Makmur",3.9415065,103.3694863,,81,DAERAH KUANTAN,PAHANG,"['transit_station', 'gas_station', 'shopping_mall']"
ZUS Coffee – Taipan USJ,"No. 9 (Ground Floor), Jalan USJ 10/1E, Taipan Business Centre, 47620, Subang Jaya, Selangor",3.048131,101.5837363,,36,PETALING,SELANGOR,"['transit_station', 'university', 'gas_station', 'shopping_mall']"
ZUS Coffee – Sunway Velocity Mall,"Lot 1-22, First Floor, Lingkaran SV2, Sunway Velocity Mall, 55100 Kuala Lumpur, Wilayah Persekutuan Kuala Lumpur",3.1278714,101.7248453,,52,KUALA LUMPUR,WP KUALA LUMPUR,"['transit_station', 'university', 'gas_station', 'shopping_mall']"
ZUS Coffee – Sapura Lot 91 KLCC,"Lot C-17, Level Concourse, Permata Sapura, Kuala Lumpur City Centre, 50088 Kuala Lumpur.",3.1531041,101.7137439,,52,KUALA LUMPUR,WP KUALA LUMPUR,"['transit_station', 'university', 'shopping_mall']"
ZUS Coffee – Genting 1 (First World),"Lot No.T2A-K03, Level 2, First World Plaza, Genting Highlands Resort, 69000 Genting Highlands, Pahang.",3.4229492,101.7934354,,87,DAERAH BENTONG,PAHANG,"['transit_station', 'shopping_mall']"
ZUS Coffee – Galacity Kuching,"Sub Lot 80, Ground Floor, Galacity Kuching, alan Datuk Tawi Sli 3rd Exchange Commercial Centre, 93250 Kuching, Sarawak",1.5087268,110.3354475,,107,KUCHING,SARAWAK,"['university', 'gas_station', 'shopping_mall']"
ZUS Coffee – Silverlakes Village,"N3-41. North Village. Silverlakes Village Outlet Kinta Valley, 31000 Batu Gajah, Perak.",4.4627405,101.0542261,,68,DAERAH KINTA,PERAK,['shopping_mall']
ZUS Coffee – Mahkota Parade,"Lot KF10D, First Floor, Mahkota Parade, 1, Jln Merdeka, 75000 Malacca",2.1893097,102.2497857,,19,MELAKA TENGAH,MELAKA,"['transit_station', 'university', 'shopping_mall']"
ZUS Coffee – The Hills Kuching,"Shop 22, Lower Ground Floor, The Hills, Interhill Place, 8, Jalan Bukit Mata Kuching, 93100 Kuching, Sarawak",1.5556253,110.3511693,,107,KUCHING,SARAWAK,"['transit_station', 'university', 'shopping_mall']"
"ZUS Coffee – Taman Myra Meranti, Puchong","No. 8A (Ground Floor), Jalan MM4, Taman Myra Meranti, 47120 Puchong, Selangor Darul Ehsan",2.9666017,101.6409523,,38,SEPANG,SELANGOR,[]
ZUS Coffee – Solaris Tuaran,"Lot No. 48, Ground Floor, Block F, Solaris Tuaran 89200 Tuaran, Sabah",6.1872115,116.2277611,,102,WEST COAST NORTH,SABAH,['shopping_mall']
ZUS Coffee – OUG Parklane,"A1-0-12 (Ground Floor), OUG Parklane, Jalan 1/152, Taman OUG Parklane, 58200 Kuala Lumpur",3.0674555,101.6574678,,52,KUALA LUMPUR,WP KUALA LUMPUR,"['transit_station', 'university', 'gas_station']"
"ZUS Coffee – Plaza 22, Papar","No.51, Ground Floor, Block H, Plaza 22, Jln Pengalat Lok Kawi, 89600 Papar, Sabah",5.7363366,115.9384203,,103,WEST COAST SOUTH,SABAH,[]
ZUS Coffee – Pusat Bandar Putra Nilai,"PT 12172 (Ground Floor), Jalan BBN 1/1F, Putra Nilai, 71800 Nilai, Negeri Sembilan.",2.8143405,101.7971551,,2,SEREMBAN,NEGERI SEMBILAN,"['transit_station', 'university']"
ZUS Coffee – MetroMall @ Metrocity Square,"Sublot No. 8, Ground Floor, MetroMall @ Metrocity Square, Survey Lot 13767 Section 6, Kuching Town Land District Metrocity Sqaure Boutique Shops",1.5679417,110.3074872,,107,KUCHING,SARAWAK,"['university', 'gas_station', 'shopping_mall']"
ZUS Coffee – Centro Mall,"Lot GK105, Ground Floor, Centro Mall, 8, Jalan Batu Tiga Lama, Kawasan 16, 41300 Klang, Selangor",3.05287,101.4627893,,39,KLANG,SELANGOR,"['transit_station', 'university', 'gas_station', 'shopping_mall']"
ZUS Coffee – Jonker Street,"No 38, Jalan Hang Jebat, 75200, Melaka",2.1958304,102.2475785,,19,MELAKA TENGAH,MELAKA,"['transit_station', 'university', 'gas_station', 'shopping_mall']"
ZUS Coffee – AEON Mall Ayer Keroh Melaka,"G-37, Ground Floor, Aeon Mall Melaka Ayer Keroh, alan Tun Abdul Razak, 75450 Melaka",2.2148518,102.2463583,,19,MELAKA TENGAH,MELAKA,"['transit_station', 'university', 'shopping_mall']"
ZUS Coffee – AEON Mall Bandaraya Melaka,"Lot G-09, Ground Floor, AEON Mall Bandaraya Melaka Shopping Centre, 2, Jalan Lagenda 2, Taman 1 Lagenda, 75400 Melaka",2.2148518,102.2463583,,19,MELAKA TENGAH,MELAKA,"['transit_station', 'university', 'shopping_mall']"
ZUS Coffee – Kingfisher Plaza,"No. 9-0, Ground Floor, Block D, Lorong Plaza Kingfisher 4, Plaza Kingfisher, 88450 Kota Kinabalu, Sabah",6.016392,116.122349,,103,WEST COAST SOUTH,SABAH,[]
Zus Coffee – Bandar Baru Jerantut,"TT6, Tingkat 1, Jalan Dulang 1, Bandar Baru, 27000 Jerantut, Pahang.",3.938761,102.361721,,85,DAERAH JERANTUT,PAHANG,"['transit_station', 'gas_station', 'shopping_mall']"
ZUS Coffee – Ipoh Sunway City,"No.4 (Ground Floor), Jalan Darul Johan Batu 5, Sunway City, 31400 Tambun, Perak",4.6214005,101.1462012,,68,DAERAH KINTA,PERAK,"['transit_station', 'university', 'gas_station', 'shopping_mall']"
ZUS Coffee – Lotus’s Klang,"Lot GK14. KS 6, 3, Jalan Batu Nilam 6, Bandar Bukit Tinggi 1, 41200 Klang, Selangor.",3.0057224,101.4408353,,39,KLANG,SELANGOR,"['transit_station', 'gas_station', 'shopping_mall']"
ZUS Coffee – Pavilion Damansara Heights,"Lot 2.13.01. Level 2. No. 3, Jalan Damanlela, Pavilion Damansara Heights 50490 Kuala Lumpur.",3.1454176,101.6631162,,52,KUALA LUMPUR,WP KUALA LUMPUR,"['transit_station', 'gas_station', 'shopping_mall']"
ZUS Coffee – Shaftsbury Square,"Level P1-23, Lot 2350, Shaftsbury Square, Cyber 6, 63000 Cyberjaya, Selangor",2.9234161,101.6613419,,38,SEPANG,SELANGOR,"['transit_station', 'university']"
ZUS Coffee – SS2,"No.5, Jalan SS2/67, SS2, 47300 Petaling Jaya, Selangor",3.1184841,101.623057,,36,PETALING,SELANGOR,"['transit_station', 'university', 'gas_station']"
ZUS Coffee – Sunway Velocity Two,"Lot VS1-G-01, Sunway Velocity Two, Jalan Peel, Seksyen 90, 55100 Wilayah Persekutuan Kuala Lumpur.",3.1282205,101.7250873,,52,KUALA LUMPUR,WP KUALA LUMPUR,"['transit_station', 'university', 'gas_station', 'shopping_mall']"
ZUS Coffee – Lotus’s Kluang,"G7. Lotus�s Kluang, H.S(D) 63272, PTD 78094, Mukim Kluang, Daerah Kluang, 86000 Johor.",2.0360615,103.3311695,,62,KLUANG,JOHOR,"['transit_station', 'gas_station', 'shopping_mall']"
ZUS Coffee – Kidzania Kuala Lumpur,"Curve NX, Jalan PJU 7/5, Mutiara, Damansara 47810 Petaling Jaya, Selangor",3.1580336,101.6138,,36,PETALING,SELANGOR,"['transit_station', 'university', 'gas_station', 'shopping_mall']"
ZUS Coffee – Seventeen Mall,"998, Jalan 17/38, Seksyen 17, 46400 Petaling Jaya, Selangor",3.1292726,101.6351356,,36,PETALING,SELANGOR,"['transit_station', 'gas_station', 'shopping_mall']"
ZUS Coffee – SHELL Cyberjaya Autoville,"Stesen Minyak Shell Autoville, Persiaran Mutilmedia, Cyber 10, 63000, Cyberjaya, Selangor",2.9182596,101.6306655,,38,SEPANG,SELANGOR,"['transit_station', 'gas_station']"
ZUS Coffee – MITC Melaka,"No.41, Ground Floor, Jalan Komersial, Taman Kota Fesyen MITC, 75450, Ayer Keroh, Melaka",2.268412,102.2923025,,19,MELAKA TENGAH,MELAKA,"['transit_station', 'university', 'shopping_mall']"
ZUS Coffee – Cybersouth Dengkil,"No 35-G, Jalan PP 1/1, Park Place 1, Cybersouth, 43800 Dengkil, Selangor",2.868679,101.6589033,,38,SEPANG,SELANGOR,['shopping_mall']
ZUS Coffee – Jerteh,"Lot 201,Jalan Tuan Hitam, 22000, Jerteh, Terengganu",5.7363601,102.4939223,,56,BESUT,TERENGGANU,"['transit_station', 'university', 'gas_station', 'shopping_mall']"
ZUS Coffee – UCSI University KL,"Lot 6, Block G, Ground Floor, UCSI University, No. 1, Jalan Menara Gading, UCSI Heights (Taman Connaught), 56000 Cheras, Kuala Lumpur.",3.0796793,101.7330196,,52,KUALA LUMPUR,WP KUALA LUMPUR,"['transit_station', 'university', 'gas_station', 'shopping_mall']"
ZUS Coffee DT – Metrioplace Batu Kawan,"1818-2-2, Jalan Perniagaan Vorteks, Pusat Perniagaan Vorteks, 14100 Simpang Ampat, Penang",5.2659402,100.4755243,,14,SEBERANG PERAI SELATAN,PULAU PINANG,"['transit_station', 'gas_station']"
"ZUS Coffee – Pengkalan Asam, Kangar","Lot No. 318, Ground Floor, Jalan Kangar-Alor Setar, Taman Mutiara, 01000 Kangar, Perlis",6.4344535,100.1879208,,67,TIADA DAERAH,PERLIS,"['transit_station', 'university', 'gas_station']"
ZUS Coffee – Caltex Selama,"Lot 5863, Jalan Sir Chulan, 34100, Selama, Perak",5.2212473,100.6852178,,74,DAERAH SELAMA,PERAK,['gas_station']
ZUS Coffee – Avenue K,"Lot C-6, Level Concourse, Avenue K, 156 Jalan Ampang, 50450 Kuala Lumpur.",3.1594766,101.7135149,,52,KUALA LUMPUR,WP KUALA LUMPUR,"['transit_station', 'university', 'gas_station', 'shopping_mall']"
ZUS Coffee – Centrepoint Bandar Utama,"LOT F103, First Floor, Centrepoint Bandar Utama, 3, Lebuh Bandar Utama, Bandar Utama, 47800 Petaling Jaya, Selangor",3.137466,101.609805,,36,PETALING,SELANGOR,"['transit_station', 'university', 'gas_station', 'shopping_mall']"
ZUS Coffee – Setiawangsa,"No 30-G (G-Floor), Jalan Setiawangsa 10 (10/55A), Taman Setiawangsa, 54200, WP Kuala Lumpur",3.178045,101.7419803,,52,KUALA LUMPUR,WP KUALA LUMPUR,"['transit_station', 'university', 'gas_station']"
ZUS Coffee – Sungei Wang Plaza,"Lot PK-5, Sungei Wang Plaza, Jalan Sultan Ismail, Bukit Bintang, 55100 Kuala Lumpur, Wilayah Persekutuan Kuala Lumpur",3.1442365,101.7105796,,52,KUALA LUMPUR,WP KUALA LUMPUR,"['transit_station', 'university', 'gas_station', 'shopping_mall']"
ZUS Coffee – Silibin,"1, Jalan Pusat Perniagaan Pertama, Pusat Perniagaan Pertama, 30100, Ipoh, Perak",4.6083804,101.0606775,,68,DAERAH KINTA,PERAK,"['transit_station', 'university', 'gas_station', 'shopping_mall']"
ZUS Coffee – Jalan Temenggong,"No. 365-I,Tingkat Bawah,Jalan Temenggong,15000,Kota Bharu,Kelantan",6.1303878,102.2376248,,45,KOTA BHARU,KELANTAN,"['transit_station', 'university', 'shopping_mall']"
ZUS Coffee – Universiti Kebangsaan Malaysia (Bangunan Pusanika),"Aras Satu, Bangunan Pusanika, Universiti Kebangsaan Malaysia, 43600 Bangi, Malaysia",2.9263178,101.7813958,,34,ULU LANGAT,SELANGOR,"['transit_station', 'university']"
"ZUS Coffee – Tower 8, Horizon 2, Bangsar South","Office 2, Ground Floor, Tower 8, Bangsar South City, Jalan Kerinchi, Kuala Lumpur.",3.1118988,101.6683189,,52,KUALA LUMPUR,WP KUALA LUMPUR,"['transit_station', 'shopping_mall']"
ZUS Coffee – Eco Sky,"G-30, Eco Sky, No. 972, Batu 6 1/2, Jalan Ipoh, 68100, Kuala Lumpur",3.250059,101.6493968,,37,GOMBAK,SELANGOR,"['transit_station', 'shopping_mall']"
ZUS Coffee – Berjaya Times Square,"Berjaya Times Square, Lot LG-18C-03A, 1, Jln Imbi, Bukit Bintang, 55100 Kuala Lumpur, Wilayah Persekutuan Kuala Lumpur",3.1425177,101.7103847,,52,KUALA LUMPUR,WP KUALA LUMPUR,"['transit_station', 'university', 'gas_station', 'shopping_mall']"
ZUS Coffee – Gemas,"PT 4633-G, Ground Floor, Jalan Pekan Gemas, Pekan Gemas, 73400 Gemas, Negeri Sembilan",2.667298,102.5730619,,4,JEMPOL,NEGERI SEMBILAN,[]
ZUS Coffee – MYDIN Tunjong,"Lot GB-12 & GB-13, Ground Floor Level, Mydin Tunjong, Lot PT 666, Jalan Kuala Krai, Bandar Baru Tunjong, 16010 Kota Bharu, Kelantan",6.0706026,102.2409029,,45,KOTA BHARU,KELANTAN,['shopping_mall']
ZUS Coffee – Alamanda Putrajaya,"Lot G22, Ground Floor. Jalan Alamanda, Presint 1, 62000 Putrajaya, Wilayah Persekutuan Putrajaya.",2.9426986,101.7106031,,53,PUTRAJAYA,WP PUTRAJAYA,"['transit_station', 'university', 'shopping_mall']"
ZUS Coffee – Kuala Krai,"No 12, Ground Floor, Jalan LF 1, Laman Firdaus, Bandar Baru Kuala Krai 18000 Kuala Krai, Kelantan",5.5397326,102.2056084,,44,KUALA KRAI,KELANTAN,['shopping_mall']
ZUS Coffee – Queensbay Mall,"Lot LG-17, Queensbay Mall, 100, Persiaran Bayan Indah, 11900 Bayan Lepas, Penang",5.3330488,100.3065283,,16,BARAT DAYA,PULAU PINANG,"['transit_station', 'university', 'shopping_mall']"
ZUS Coffee – Kuala Lipis PP Barry,"No 13 (Ground & Mezzanine Floor), Jalan Pusat Perniagaan Barry, Pusat Perniagaan Barry @ Kuala Lipis, 27200 Kuala Lipis, Pahang Darul Makmur.",4.18897,102.049451,,82,DAERAH LIPIS,PAHANG,"['transit_station', 'university', 'shopping_mall']"
ZUS Coffee – INTI International College Subang,"Cafeteria Level 1, Block B, INTI International College Subang Campus, No 3, Jalan SS15/8, 47500 Subang Jaya, Selangor.",3.07417,101.59126,,36,PETALING,SELANGOR,"['transit_station', 'university', 'gas_station', 'shopping_mall']"
ZUS Coffee – Dataran Austin,"PT35394 , Ground Floor, Dataran Austin, Jalan Gong Badak Kg Wakaf Tembesu, 21300, Kuala Terengganu, Terengganu",5.3576693,103.0957615,,12,KUALA NERUS,TERENGGANU,"['transit_station', 'university', 'shopping_mall']"
ZUS Coffee – Merlimau,"JC 23, Ground Floor, Jalan BMU 1, Bandar Baru Merlimau Utara, 77300, Merlimau, Melaka",2.1667789,102.4320607,,18,JASIN,MELAKA,"['university', 'shopping_mall']"
ZUS Coffee – The Summer Shopping Mall,"Ground Floor, Island Kiosk, The Summer Shopping Mall, Lot 7455, Block 1, Jln Datuk Mohammad Musa, 94300 Kota Samarahan, Sarawak",1.4547136,110.4593988,,111,SAMARAHAN,SARAWAK,"['gas_station', 'shopping_mall']"
ZUS Coffee – Aeon Mall Kuching Central,"Lot KS4, Level 2, AEON Mall Kuching Central, Jln Tun Datuk Patinggi Haji Ahmad Zaidi Adruce, Min Chu Garden, 93200 Kuching, Sarawak",1.5275039,110.3373277,,107,KUCHING,SARAWAK,"['university', 'shopping_mall']"
ZUS Coffee – Bandar Country Homes Rawang,"No. G-16, Avia Plus, Jalan Desa Utama, Bandar Country Home, 48000 Rawang, Selangor",3.323572,101.526664,,37,GOMBAK,SELANGOR,['gas_station']
ZUS Coffee – Melawati Mall,"Lot L1-K1, Melawati Mall, Jalan Bandar 12, Taman Melawati, 53100 Kuala Lumpur, Selangor",3.2104842,101.7485587,,37,GOMBAK,SELANGOR,"['transit_station', 'university', 'gas_station', 'shopping_mall']"
ZUS Coffee – IOI Boulevard,"B-G-13A (Ground Floor), IOI Boulevard, Jalan Kenari 5, Bandar Puchong Jaya, 47100 Puchong, Selangor.",3.0455094,101.6219812,,36,PETALING,SELANGOR,"['transit_station', 'university', 'gas_station', 'shopping_mall']"
ZUS Coffee – Kuala Sungai Baru,"SI 15, Ground Floor, Jalan Sungai Baru Ilir Jaya Utama, Taman Sungai Baru Ilir Jaya, 78300 Masjid Tanah, Melaka.",2.366348,102.0512475,,20,ALOR GAJAH,MELAKA,[]
ZUS Coffee – Pekan Meru,"195, Jalan Meru Batu 6 1/2, Pekan Meru, 41050 Klang, Selangor",3.1311418,101.4403017,,39,KLANG,SELANGOR,"['transit_station', 'gas_station', 'shopping_mall']"
ZUS Coffee – Desa Petaling,"29, Jalan 3/125D, Desa Petaling 57100 Kuala Lumpur",3.0827994,101.7049926,,52,KUALA LUMPUR,WP KUALA LUMPUR,"['transit_station', 'university', 'gas_station', 'shopping_mall']"
Zus Coffee – DT Shell Pulai Perdana,"PTD 105042, Jalan Skudai-Pontian, Kangkar Pulai, 81300 Skudai, Johor",1.5620948,103.5837975,,63,KULAI,JOHOR,['transit_station']
ZUS Coffee – Jade Hills Kajang,"No 54-1, Jalan Dataran Jade 6, Dataran Jade, Jade Hills, 43000 Kajang, Selangor",2.9921256,101.7602936,,34,ULU LANGAT,SELANGOR,['transit_station']
ZUS Coffee – Bandar Tasik Puteri,"No 82-G-A, Ground Floor, Jalan 7A/2, Bandar Tasik Puteri, 48000 Rawang, Selangor",3.2842291,101.4733304,,37,GOMBAK,SELANGOR,"['transit_station', 'shopping_mall']"
ZUS Coffee – Bandar Sunway,"No 27 (Ground Floor), Jalan PJS 11/28b, Sunway Metro Bandar Sunway, 46150 Petaling Jaya, Selangor",3.072735,101.609228,,36,PETALING,SELANGOR,"['transit_station', 'university', 'gas_station', 'shopping_mall']"
ZUS Coffee – Ampang Business Centre,"Lot TG-1, PT 111, Kompleks Perniagaan Ampang, Lebuhraya Sultanah Bahiyah, 05050 Alor Setar, Kedah",6.1122407,100.3505128,,22,DAERAH KOTA SETAR,KEDAH,"['gas_station', 'shopping_mall']"
ZUS Coffee – Central Square,"Lot TR-05 & 06, Centra Square Shopping Centre, 23, Jalan Kampung Baru, 08000 Sungai Petani, Kedah",5.6369764,100.4885066,,24,DAERAH KUALA MUDA,KEDAH,"['transit_station', 'university', 'gas_station', 'shopping_mall']"
ZUS Coffee – Wetex Parade,"Lot G13 & G13A, Wetex Parade, No. 69, Jalan Ali, 84000 Muar, Johor",2.0436445,102.5666703,,59,MUAR,JOHOR,"['transit_station', 'university', 'gas_station', 'shopping_mall']"
ZUS Coffee – Lotus’s Nilai,"Lot G 41. 1, Jalan BBN 1/3, Putra Point, 71800 Nilai, Negeri Sembilan.",2.8159718,101.7904683,,2,SEREMBAN,NEGERI SEMBILAN,"['transit_station', 'shopping_mall']"
ZUS Coffee – Kulim Central,"Lot GF-14, Kulim Central, Jalan Klc 1, Kampung Keladi, 09000 Kulim, Kedah",5.3855366,100.5465946,,28,DAERAH KULIM,KEDAH,"['gas_station', 'shopping_mall']"
ZUS Coffee – Johor Bukit Gambir Tangkak,"No. 16 (Ground Floor), Jalan Gambir 5A, Bandar Baru Bukit Gambir, 84800 Tangkak, Johor",2.2942599,102.7020218,,64,TANGKAK,JOHOR,[]
ZUS Coffee – Ferringhi Walk,"72C-G-7 ,Jalan Batu Ferringhi, 11100 Batu Ferringhi, Penang",5.4750553,100.2493961,,15,TIMOR LAUT,PULAU PINANG,"['transit_station', 'university', 'gas_station', 'shopping_mall']"
ZUS Coffee – Amanjaya Mall,"Lot K31 & K32, Lower Ground Floor, Kompleks, Amanjaya, No.1, Jalan Jati 1, 08000 Sungai Petani, Kedah",5.673324,100.5084839,,24,DAERAH KUALA MUDA,KEDAH,"['university', 'shopping_mall']"
ZUS Coffee – AEON Mall Bukit Indah,"AEON Mall Bukit Indah. G07A, Ground Floor, Grand Mezzanine, 8, Jalan Indah 15/2, Taman Bukit Indah, 81200 Johor Bahru, Johor.",1.4817523,103.6557625,,61,JOHOR BAHRU,JOHOR,"['transit_station', 'gas_station', 'shopping_mall']"
"ZUS Coffee – H Elite Design Hotel, Tunjong","AG-G-02 & AG-G-03, Alwaqf @ Tunjong, Jalan Kuala Krai, 16010 Kota Bahru, Kelantan Darul Naim.",6.0569052,102.2382438,,45,KOTA BHARU,KELANTAN,['shopping_mall']
ZUS Coffee – Cheras Leisure Mall,"Lot L1-24, Leisure Mall, Jalan Manis 6, Taman Bukit Segar, 56100 Kuala Lumpur, Wilayah Persekutuan Kuala Lumpur",3.0909294,101.7431317,,52,KUALA LUMPUR,WP KUALA LUMPUR,"['transit_station', 'gas_station', 'shopping_mall']"
ZUS Coffee – Pearl Point Shopping Mall,"LOT F-25. Menara Pearl Point 2 No. 2A, Jalan Sepadu, Off, Jln Klang Lama, 58200 Kuala Lumpur.",3.0846946,101.6733384,,52,KUALA LUMPUR,WP KUALA LUMPUR,"['transit_station', 'university', 'shopping_mall']"
ZUS Coffee – Empire Shopping Gallery,"LK-07, Level Lower Ground, Empire Shopping Gallery, Jalan SS16/1, 47500 Subang Jaya, Selangor Darul Ehsan",3.0817783,101.5828038,,36,PETALING,SELANGOR,"['transit_station', 'university', 'gas_station', 'shopping_mall']"
ZUS Coffee – Vivacity Megamall,"Lot L3-K006, Vivacity Megamall, Jalan Wan Alwi, 93350 Kuching, Sarawak",1.5268545,110.3695884,,107,KUCHING,SARAWAK,"['transit_station', 'gas_station', 'shopping_mall']"
ZUS Coffee – Komtar Walk,"Lot No. 3 (Ground Floor), Komtar Walk, Jalan Dr Lim Chwee Leong, 10450 George Town, Pulau Pinang",5.4161443,100.3307082,,15,TIMOR LAUT,PULAU PINANG,"['transit_station', 'university', 'shopping_mall']"
ZUS Coffee – Melaka Taman Merdeka,"No 39 (Ground Floor), Jalan Merdeka 1, Taman Merdeka, Hang Tuah Jaya, 75350 Batu Berendam, Melaka.",2.2708412,102.2458838,,19,MELAKA TENGAH,MELAKA,['transit_station']
ZUS Coffee – Plaza Gurney,"Lot 170-03-68, Gurney Plaza, Persiaran Gurney, 10250, Penang, Malaysia",5.437735,100.3099404,,15,TIMOR LAUT,PULAU PINANG,"['transit_station', 'shopping_mall']"
ZUS Coffee – CALTEX Sungai Choh,"PT 20499 (Lot 1493), Kampung Stesen, Sungai Buaya, 48000 Sungai Choh, Selangor Darul Ehsan.",3.352858,101.588643,,35,ULU SELANGOR,SELANGOR,['transit_station']
ZUS Coffee – Amanjaya Mall,"Lot K31 & K32, Lower Ground Floor, Kompleks, Amanjaya, No.1, Jalan Jati 1, 08000 Sungai Petani",5.673324,100.5084839,,24,DAERAH KUALA MUDA,KEDAH,"['university', 'shopping_mall']"
ZUS Coffee – Segamat Central,"Lot G-11, Jalan Kolam Air, 85000 Segamat, Johor Darul Takzim",2.5122414,102.8124877,,66,DAERAH SEGAMAT,JOHOR,"['transit_station', 'shopping_mall']"
ZUS Coffee – Sungai Siput,"No 12, Ground Floor, Persiaran Pesona 1, Medan Pesona, 31100 Sungai Siput, Perak Darul Ridzuan.",4.8429421,101.1164452,,70,DAERAH KUALA KANGSAR,PERAK,[]
ZUS Coffee – Teluk Pulai,"No.198 (Ground floor), Jalan Teluk Pulai, 41000 Klang, Selangor",3.0406423,101.4338918,,39,KLANG,SELANGOR,"['transit_station', 'gas_station']"
ZUS Coffee – Seremban Prima Mall,"Lot G11, Ground Floor, Jalan Dato Bandar Tunggal, 70000 Seremban, Negeri Sembilan.",2.7250222,101.9388397,,2,SEREMBAN,NEGERI SEMBILAN,"['transit_station', 'university', 'gas_station', 'shopping_mall']"
ZUS Coffee – Lagenda Heights,"No 190, Ground Floor, Jalan Legenda 7, Lagenda Heights, 08000 Sungai Petani, Kedah Darul Aman.",5.6586123,100.5003313,,24,DAERAH KUALA MUDA,KEDAH,"['university', 'shopping_mall']"
ZUS Coffee – Subang Parade,"Lot LGC15, Lower Ground Floor, Subang Parade Shopping Centre",3.0815717,101.5852577,,36,PETALING,SELANGOR,"['transit_station', 'university', 'gas_station', 'shopping_mall']"
"ZUS Coffee – CALTEX Cindai Jaya, SP","No 10, Jalan Cindai Jaya 1A, Taman Cindai Jaya, 08000 Sungai Petani, Kedah Darul Aman.",5.6249481,100.5322702,,24,DAERAH KUALA MUDA,KEDAH,"['transit_station', 'gas_station']"
ZUS Coffee – Chukai,"PT 11296 (Ground Floor), Jalan Kubang Kurus, Taman Cukai Utama, 24000 Chukai, Terengganu",4.2212601,103.4186279,,7,KEMAMAN,TERENGGANU,['shopping_mall']
ZUS Coffee – Arau,"Lot 3A, Jalan Satu, Kompleks Tok Arau, Arau, 02600 Kangar, Perlis.",6.4281931,100.2728582,,67,TIADA DAERAH,PERLIS,"['transit_station', 'gas_station', 'shopping_mall']"
ZUS Coffee – PJ New Town,"10 (Ground Floor), Jalan 52/18, PJ New Town, 46200 Petaling Jaya, Selangor",3.0988158,101.6454221,,36,PETALING,SELANGOR,"['transit_station', 'university', 'gas_station']"
ZUS Coffee – KSL Esplanade Mall,"LOT G053A, Ground Floor, No 2, Jalan Langat KS9, Bandar Bestari, 42500 Klang, Selangor",3.0052274,101.4404936,,39,KLANG,SELANGOR,"['transit_station', 'gas_station', 'shopping_mall']"
ZUS Coffee – Da Men Mall,"LG-25, Lower ground. 1, Persiaran Kewajipan, Usj 1, 47600 Subang Jaya, Selangor.",3.0580052,101.5925509,,36,PETALING,SELANGOR,"['transit_station', 'university', 'gas_station', 'shopping_mall']"
ZUS Coffee – University of Malaya,"Locker Room (Ground Floor), Bangunan Perpustakaan Utama, University of Malaya, Lembah Pantai, 50603 Kuala Lumpur",3.1202977,101.6543403,,52,KUALA LUMPUR,WP KUALA LUMPUR,"['transit_station', 'university']"
ZUS Coffee – Yong Peng,"No.4 (Ground floor), Jalan Cahaya Baru, Taman Bandar Cahaya Baru, 83700 Yong Peng, Johor",2.0100478,103.0696723,,58,BATU PAHAT,JOHOR,"['transit_station', 'gas_station', 'shopping_mall']"
ZUS Coffee – Jetty Point Complex,"Lot Zone 2N Lot 9, Kompleks Jetty Point, Persiaran Putera, Kuah, 07000, Langkawi, Kedah",6.306308,99.8517338,,21,DAERAH LANGKAWI,KEDAH,"['transit_station', 'shopping_mall']"
ZUS Coffee – CALTEX Bandar Putra Bertam,"2278 (Lot 9588), Jalan Tun Hamdan Sheikh Tahir, Bandar Putra Bertam, 13200 Kepala Batas, Pulau Pinang.",5.5189114,100.4626139,,51,SEBERANG PERAI UTARA,PULAU PINANG,['transit_station']
ZUS Coffee – University of Nottingham,"Block H (Ground Floor), Student Association Building, Jalan Broga, 43500 Semenyih, Selangor Darul Ehsan",2.9438373,101.8760735,,34,ULU LANGAT,SELANGOR,['university']
ZUS Coffee – Suria KLCC,"Lot No. OS301 , Level 3, Suria KLCC, Persiaran Petronas, Kuala Lumpur City Centre, 50088 Kuala Lumpur",3.1572757,101.7122335,,52,KUALA LUMPUR,WP KUALA LUMPUR,"['transit_station', 'university', 'shopping_mall']"
ZUS Coffee – Imago Shopping Mall,"G-51. Imago Shopping Mall, KK Times Square, Phase 2, Off Coastal Highway, 88100 Kota Kinabalu, Sabah.",5.9708621,116.0663544,,103,WEST COAST SOUTH,SABAH,"['transit_station', 'university', 'shopping_mall']"
ZUS Coffee – KL Gateway,"Lot G.15 & G.16. KL Gateway Mall. 2, Jalan Kerinchi, Kampung Kerinchi, 59200 Kuala Lumpur, Wilayah Persekutuan Kuala Lumpur.",3.114043,101.6639373,,52,KUALA LUMPUR,WP KUALA LUMPUR,"['transit_station', 'university', 'shopping_mall']"
ZUS Coffee – AEON Mall Wangsa Maju Alpha Angle,"Lot F37. Jalan R1, Seksyen 1, Bandar Baru Wangsa Maju 53300 Kuala Lumpur.",3.2046482,101.7274695,,52,KUALA LUMPUR,WP KUALA LUMPUR,"['transit_station', 'university', 'gas_station']"
ZUS Coffee – KLIA 1 Departure Hall,"Lot CPD 3 A06, Gate A, Contact Pier Domestic KLIA, Kuala Lumpur International Airport, 64000 Sepang, Selangor Darul Ehsan.",2.752535,101.7059,,38,SEPANG,SELANGOR,"['transit_station', 'shopping_mall']"
ZUS Coffee – Slim River,"No 90-A, Jalan Perdana 5, Pusat Perniagaan Slim Perdana, 35800 Slim River, Perak Darul Ridzuan.",3.8426712,101.3938485,,76,DAERAH MUALLIM,PERAK,['shopping_mall']
ZUS Coffee – Nusa Bestari,"2 (Ground floor) , Jalan Bestari 6/2, Taman Nusa Bestari , 81300 Skudai , Johor.",1.4818407,103.6658061,,61,JOHOR BAHRU,JOHOR,"['transit_station', 'university']"
ZUS Coffee – M3 Shopping Mall,"GK-10a & GK-10b, Jln Madrasah, Taman Melati, 53100 Kuala Lumpur, Wilayah Persekutuan Kuala Lumpur.",3.215744,101.716853,,52,KUALA LUMPUR,WP KUALA LUMPUR,"['transit_station', 'university', 'gas_station', 'shopping_mall']"
ZUS Coffee – AEON Mall Seri Manjung,"Lot G039 & G40, Pusat Perniagaan, Jalan Manjung Point 3, 32040 Seri Manjung, Perak.",4.214314,100.667309,,80,DAERAH MANJUNG,PERAK,"['transit_station', 'university', 'gas_station', 'shopping_mall']"
ZUS Coffee – East Coast Mall,"L2-39. East Coast Mall. Jalan Putra Square 6, Putra Square, 25200 Kuantan, Pahang.",3.8183575,103.3262428,,81,DAERAH KUANTAN,PAHANG,"['transit_station', 'university', 'gas_station', 'shopping_mall']"
ZUS Coffee – AEON Mall Kinta City,"Lot F65, Jalan Sultan Azlan Shah, Bandar Baru Medan Ipoh, 31400 Ipoh, Perak.",4.6173039,101.1168117,,68,DAERAH KINTA,PERAK,"['transit_station', 'university', 'gas_station', 'shopping_mall']"
ZUS Coffee – AEON Mall Ipoh Station 18,"Lot KS2. No.2, Susunan Stesen 18, Station 18, 31650 Ipoh, Perak.",4.5470107,101.0702984,,68,DAERAH KINTA,PERAK,"['transit_station', 'university', 'gas_station', 'shopping_mall']"
ZUS Coffee – Xiamen University Malaysia,"A3 Library Cafe – GF, Xiamen University Malaysia, Jalan Sunsuria, Bandar Sunsuria, 43900 Sepang, Selangor.",2.8326981,101.7031567,,38,SEPANG,SELANGOR,['university']
ZUS Coffee – Skypark Terminal,"Lot No. G10B, Ground Floor, Skypark Terminal, Sultan Abdul Aziz Shah Airport, 47200 Subang, Selangor",3.13479,101.554998,,36,PETALING,SELANGOR,['transit_station']
ZUS Coffee – Serai Wangi Mall,"Lot 53, No.2500, Lorong Serai Wangi 4/10, Taman Serai Wangi III & IV, 09400, Padang Serai, Kedah Darul Aman",5.5235974,100.5446093,,28,DAERAH KULIM,KEDAH,[]
ZUS Coffee – The Mall Mid Valley Southkey,"Lot LGK-16, Mid Valley Southkey, No. 1 Persiaran Southkey 1, 80150 Johor Bahru",1.5013338,103.7774187,,61,JOHOR BAHRU,JOHOR,"['transit_station', 'shopping_mall']"
ZUS Coffee – Jaya One Mall,"100-P2.017 The School, Jaya One. 72A, Jln Profesor Diraja Ungku Aziz, Seksyen 13, 46200 Petaling Jaya, Selangor.",3.1173734,101.635064,,36,PETALING,SELANGOR,"['transit_station', 'university', 'shopping_mall']"
ZUS Coffee – AEON Mall Metro Prima Kepong,"LOT KF2. 1, Jalan Metro Prima, Taman Kepong, 52100 Kuala Lumpur, Wilayah Persekutuan Kuala Lumpur.",3.2132147,101.6390662,,52,KUALA LUMPUR,WP KUALA LUMPUR,"['transit_station', 'university', 'gas_station', 'shopping_mall']"
ZUS Coffee – Taman Bukit Anggerik,"No.14 (Ground Floor), Jalan 34/154, Taman Bukit Anggerik, 56000 Kuala Lumpur",3.0578783,101.7478374,,52,KUALA LUMPUR,WP KUALA LUMPUR,"['transit_station', 'shopping_mall']"
ZUS Coffee – Langkawi MAHA Tower,"Unit L1A-01, MAHA Tower Langkawi, Kuah, 07000 Langkawi, Kedah",6.3200889,99.8458451,,21,DAERAH LANGKAWI,KEDAH,[]
ZUS Coffee – AEON Mall Taman Maluri,"Lot KF2. Jalan Jejaka, Maluri, 55100 Cheras, Wilayah Persekutuan Kuala Lumpur",3.1275076,101.7322692,,52,KUALA LUMPUR,WP KUALA LUMPUR,"['transit_station', 'university', 'shopping_mall']"
ZUS Coffee – AEON Mall Bukit Raja,"Lot G23, Bukit Raja Shopping Centre, Persiaran Bukit Raja 2, Bandar Baru Klang, 41150 Klang, Selangor.",3.0606523,101.4724269,,39,KLANG,SELANGOR,"['transit_station', 'gas_station', 'shopping_mall']"
ZUS Coffee – Taman Desa Setapak,"No.37 (Ground Floor), Jalan 1/27B, Desa Setapak, 53300, Kuala Lumpur",3.2063739,101.734019,,52,KUALA LUMPUR,WP KUALA LUMPUR,"['transit_station', 'university', 'shopping_mall']"
ZUS Coffee – Taman Kosas,"No 21 (Ground Floor), Jalan Kosas 1/2, Taman Kosas, 68000 Ampang, Selangor Darul Ehsan.",3.1460891,101.7714589,,34,ULU LANGAT,SELANGOR,"['transit_station', 'university', 'shopping_mall']"
ZUS Coffee – Putrajaya Presint 15,"No 43 (Ground Floor), Jalan Diplomatik, Presint Diplomatik, 62050 Putrajaya, Wilayah Persekutuan Putrajaya",2.944981,101.7231343,,53,PUTRAJAYA,WP PUTRAJAYA,"['transit_station', 'university', 'shopping_mall']"
ZUS Coffee – Bandar Sungai Long,"No 19, Ground Floor, Jalan SL 1/4, Bandar Sungai Long, 43000 Kajang, Selangor",3.0406113,101.7927511,,34,ULU LANGAT,SELANGOR,"['transit_station', 'university', 'gas_station']"
ZUS Coffee – Quayside Mall,"1FK-07, First Floor. Quayside Mall. Gamuda Kemuning, 25.7, Persiaran Freesia, 42500 Telok Panglima Garang, Selangor.",2.9568618,101.5536023,,32,KUALA LANGAT,SELANGOR,['shopping_mall']
ZUS Coffee – MYDIN USJ Subang Jaya,"Lot GSRU-24,GSRU-25, Ground Floor level, MYDIN Subang Jaya, Persiaran Subang Permai, USJ 1, 47500 Subang Jaya, Selangor",3.0589966,101.5964035,,36,PETALING,SELANGOR,"['transit_station', 'university', 'shopping_mall']"
ZUS Coffee – Paradigm Mall JB,"Lot 4FK-35, Paradigm Mall, Jalan Skudai Lbh, 81200, Johor.",1.5156318,103.6857437,,61,JOHOR BAHRU,JOHOR,"['transit_station', 'university', 'gas_station', 'shopping_mall']"
ZUS Coffee – IKEA Batu Kawan Link Building (Klippa),"LG.07, Lower Ground Floor, IKEA Batu Kawan Link Building, 752, Persiaran Cassia Selatan, 8, Lebuhraya Bandar Cassia, 14110 Simpang Ampat, Penang",5.2338165,100.4404007,,14,SEBERANG PERAI SELATAN,PULAU PINANG,"['university', 'shopping_mall']"
ZUS Coffee – Temu @ City Of Elmina,"No 5 (Ground Floor), Jalan Eserina AA U16/AA, Elmina East, Seksyen U16, 40150 Shah Alam, Selangor Darul Ehsan.",3.186148,101.5190497,,36,PETALING,SELANGOR,[]
ZUS Coffee – Ipoh Parade,"Unit G03, Ipoh Parade Mall, 105, Jalan Sultan Abdul Jalil, Pusat Perdagangan Greentown, 30450 Ipoh, Perak.",4.595682,101.0898842,,68,DAERAH KINTA,PERAK,"['transit_station', 'university', 'gas_station', 'shopping_mall']"
ZUS Coffee – Pejabat Pos Besar Ipoh,"Pejabat Pos Besar Ipoh. JKR 5120, Jalan Kelab, 30670 Ipoh, Perak.",4.5961456,101.0735804,,68,DAERAH KINTA,PERAK,"['transit_station', 'university', 'gas_station', 'shopping_mall']"
ZUS Coffee – Labis,"No 114, Jalan Segamat, Taman Bintang Jaya, 85300 Labis, Johor.",2.3985631,103.0185875,,66,DAERAH SEGAMAT,JOHOR,"['transit_station', 'gas_station']"
ZUS Coffee – Bandar Seri Alam,"No 5 (Ground floor), Jalan Suria 3, Bandar Seri Alam, 81750 Masai, Johor",1.4950482,103.8736295,,61,JOHOR BAHRU,JOHOR,"['transit_station', 'gas_station', 'shopping_mall']"
ZUS Coffee – Taiping Mall,"Lot G-02, Ground Floor, Taiping Mall, Jalan Tupai, 34000 Taiping Perak Darul Ridzuan",4.8497629,100.7425103,,71,DAERAH LARUT MATANG,PERAK,"['transit_station', 'university', 'gas_station', 'shopping_mall']"
ZUS Coffee – Suria Sabah Shopping Mall,"Kiosk-LG-K8, Lower Ground Floor, Jalan Tun Fuad Stephens, 88000 Kota Kinabalu, Sabah, Malaysia",6.0137965,116.112973,,103,WEST COAST SOUTH,SABAH,[]
ZUS Coffee – Kuala Berang,"Lot G-264, Jalan Ajil – Kuala Berang, Kampung Rahmat, 21700 Kuala Berang, Terengganu Darul Iman.",5.0728791,103.0094346,,8,HULU TERENGGANU,TERENGGANU,"['gas_station', 'shopping_mall']"
ZUS Coffee – Nu Sentral Mall,"Lot CC.04A. 201, Jalan Tun Sambanthan, Brickfields, 50470 Kuala Lumpur, Wilayah Persekutuan Kuala Lumpur.",3.1331869,101.6872241,,52,KUALA LUMPUR,WP KUALA LUMPUR,"['transit_station', 'university', 'gas_station', 'shopping_mall']"
ZUS Coffee – Aman Central,"LG-K28 & K29. Aman Central, 1, Darul Aman Hwy, Kampung Lubok Peringgi, 05100 Alor Setar, Kedah",6.1248637,100.3667935,,22,DAERAH KOTA SETAR,KEDAH,"['transit_station', 'shopping_mall']"
ZUS Coffee – Jitra,"Lot 1521-A1, Pantai Halban, Bandar Darulaman Jaya, 06000 Jitra, Kedah Darul Aman.",6.244063,100.4203778,,55,DAERAH KUBANG PASU,KEDAH,"['transit_station', 'university', 'gas_station']"
ZUS Coffee – Botanica Balik Pulau,"No 138 (Ground Floor), Jalan Sungai Air Putih, 11000 Balik Pulau, Pulau Pinang.",5.371773,100.22119,,16,BARAT DAYA,PULAU PINANG,['transit_station']
ZUS Coffee – Lintas Plaza,"No 30-0 (Ground Floor), Phase 2C, Lorong Lintas Plaza, Lintas Plaza, 88300 Kota Kinabalu, Sabah.",5.9464908,116.0893761,,103,WEST COAST SOUTH,SABAH,['shopping_mall']
ZUS Coffee – Pandan Indah,"No. 15G (Ground Floor), Jalan Perubatan 2, Pandan Indah, 55100, Kuala Lumpur.",3.1287671,101.7520594,,34,ULU LANGAT,SELANGOR,"['transit_station', 'university', 'gas_station', 'shopping_mall']"
ZUS Coffee – Majestic Maxim Residensi Tmn Bkt Cheras,"No.LG-03, Residensi Majestic Maxim, 45, Jalan 9, Taman Bukit Cheras, 56000 Kuala Lumpur",3.0754384,101.742029,,52,KUALA LUMPUR,WP KUALA LUMPUR,"['transit_station', 'university', 'gas_station', 'shopping_mall']"
ZUS Coffee – Desa Cemerlang,"No.49, Jalan Tanjong 2, Taman Desa Cemerlang, 81800 Ulu Tiram, Johor.",1.5608971,103.8087674,,61,JOHOR BAHRU,JOHOR,"['university', 'gas_station']"
ZUS Coffee – Parit Raja,"No 20 (Ground Floor), Jalan Universiti 1, Taman Universiti, 86400 Parit Raja, Johor Darul Takzim.",1.8486057,103.0746471,,58,BATU PAHAT,JOHOR,"['transit_station', 'university', 'gas_station', 'shopping_mall']"
ZUS Coffee – Eco Borealis,"No 29-G, Jalan Borealis 3, Pusat Komersial Borealis, Bandar Cassia, 14110 Simpang Ampat, Pulau Pinang.",5.2372523,100.4434624,,14,SEBERANG PERAI SELATAN,PULAU PINANG,"['university', 'shopping_mall']"
ZUS Coffee – Quill City Mall,"LG-23A. 1018, Jln Sultan Ismail, Bandar Wawasan, 54200 Kuala Lumpur, Wilayah Persekutuan Kuala Lumpur.",3.1598739,101.7002999,,52,KUALA LUMPUR,WP KUALA LUMPUR,"['transit_station', 'university', 'gas_station', 'shopping_mall']"
ZUS Coffee – Bandar Utama Cheng,"No 17 (Ground Floor), Jalan Inang 1, Taman Paya Rumput Utama, 76450 Melaka.",2.2820173,102.2181045,,19,MELAKA TENGAH,MELAKA,['shopping_mall']
ZUS Coffee – Taman Machang Bubok,"No 235-G, Jalan Machang Bubok 1, Taman Machang Bubok, 14020 Bukit Mertajam, Pulau Pinang.",5.335069,100.5041818,,17,SEBERANG PERAI TENGAH,PULAU PINANG,"['transit_station', 'university']"
ZUS Coffee – IOI City Mall,"L1-K204, First Floor, IOI City Mall 2, Lebuh IRC, IOI Resort City, 62502 Putrajaya",2.970663,101.7136681,,38,SEPANG,SELANGOR,"['transit_station', 'university', 'shopping_mall']"
ZUS Coffee – KTCC Mall Kuala Terengganu,"LOT G-17, KTCC Mall, 219, Jalan Sultan Zainal Abidin, 20200 Kuala Terengganu, Terengganu",5.3331784,103.1502036,,13,KUALA TERENGGANU,TERENGGANU,"['transit_station', 'university', 'shopping_mall']"
ZUS Coffee – ElementX @ Hatten City,"G13, Ground Floor, ElementX @ Hatten City, Jalan Melaka Raya, 23, Taman Melaka Raya, 75000 Melaka",2.1826003,102.2625,,19,MELAKA TENGAH,MELAKA,"['transit_station', 'university', 'shopping_mall']"
ZUS Coffee – Kuala Ketil,"No 154 (Ground Floor), Persiaran KKCC 3, Kuala Ketil Commercial Centre, 09100 Kuala Ketil, Kedah Darul Aman.",5.6068205,100.6422535,,27,DAERAH BALING,KEDAH,"['transit_station', 'gas_station', 'shopping_mall']"
ZUS Coffee – KB Mall,"GK-33, 33A, 41 & 42, Ground Floor, KB Mall, 1, Jalan Hamzah, Seksyen 16, 15050 Kota Bharu, Kelantan",6.1174606,102.2401375,,45,KOTA BHARU,KELANTAN,"['university', 'gas_station', 'shopping_mall']"
"ZUS Coffee – Megah Rise Mall, PJ","Lot G-15, Ground Floor, Megah Rise Mall, Jalan SS 24/11, Taman Megah, 47301 Petaling Jaya",3.1143577,101.6117016,,36,PETALING,SELANGOR,"['transit_station', 'shopping_mall']"
ZUS Coffee – BHP Jalan Maarof,"78, Jalan Ma’arof, Bangsar, 59000 Kuala Lumpur, Wilayah Persekutuan Kuala Lumpur",3.1339296,101.6722371,,52,KUALA LUMPUR,WP KUALA LUMPUR,"['transit_station', 'gas_station', 'shopping_mall']"
ZUS Coffee – The FLO Bandar Sri Damansara,"GF-3, The Flo, Persiaran Perdana, Bandar Sri Damansara, 52200 Kuala Lumpur",3.1973236,101.611483,,36,PETALING,SELANGOR,"['transit_station', 'university', 'gas_station', 'shopping_mall']"
ZUS Coffee – AEON Mall Taman Equine Shopping Centre,"Lot LG13, Lower Ground Floor, Aeon Taman Equine Shopping Centre, 2, Jalan Equine, Pusat Bandar Putra Permai, 43300 Seri Kembangan, Selangor",2.99525,101.6751274,,36,PETALING,SELANGOR,"['transit_station', 'university', 'gas_station', 'shopping_mall']"
ZUS Coffee – EG Mall Inanam,"Lot G6, K9 & K10, EG Mall Inanam, No 6, Lot 28, Taman Perindustrian Bukit Emas, Mile 7 1/2, Jalan Tuaran, 88400 Kota Kinabalu, Sabah.",5.9775005,116.0877781,,103,WEST COAST SOUTH,SABAH,['gas_station']
ZUS Coffee – Puncak Jalil,"No 26 (Ground Floor), Jalan PUJ 3/13, Taman Puncak Jalil, 43300 Seri Kembangan, Selangor Darul Ehsan.",3.0228016,101.6755101,,36,PETALING,SELANGOR,"['transit_station', 'shopping_mall']"
ZUS Coffee – Banting,"No 213 (Ground Floor), Jalan Sultan Abdul Samad, Bandar Banting, 42700 Banting, Selangor Darul Ehsan.",2.8134965,101.4865686,,32,KUALA LANGAT,SELANGOR,['transit_station']
ZUS Coffee – AEON Mall Shah Alam,"Lot (KG10), AEON Mall Shah Alam, Jalan Akuatik 13/64, Seksyen 13, 40100 Shah Alam, Selangor",3.0767621,101.5482713,,36,PETALING,SELANGOR,"['transit_station', 'university', 'gas_station', 'shopping_mall']"
ZUS Coffee – Sunggala Gateway,"No 7-G (Ground Floor), Jalan PDS 2, PD Sunggala Gateway, Teluk Kemang, 71050 Port Dickson, Negeri Sembilan.",2.4744956,101.8563308,,0,PORT DICKSON,NEGERI SEMBILAN,"['transit_station', 'gas_station', 'shopping_mall']"
ZUS Coffee – Datum Jelatek Mall,"L1-K-09 & 07 (level 1), Datum Jelatek Mall, Jalan Enggang, Taman Keramat, 54200 Kuala Lumpur, Selangor.",3.1672198,101.7361289,,37,GOMBAK,SELANGOR,"['transit_station', 'shopping_mall']"
"ZUS Coffee – 68 Degree Avenue, Johor","No 15 (Ground Floor), Jalan Suria 2, Pusat Komersial Suria, 81550 Gelang Patah, Johor.",1.454711,103.5994247,,61,JOHOR BAHRU,JOHOR,['transit_station']
ZUS Coffee – Plaza 333,"Lot 42-0 (Ground Floor), Block E, Lorong Plaza 333-6, Plaza 333, Kobusak Commercial Centre, 88500 Kota Kinabalu, Sabah.",5.9245011,116.0777371,,103,WEST COAST SOUTH,SABAH,['gas_station']
"ZUS Coffee – Taman Tas, Kuantan","B4 (Ground Floor), Lorong Pandan Damai 2/4, Taman Pandan Damai, 25150 Kuantan, Pahang Darul Makmur.",3.7712682,103.2323289,,81,DAERAH KUANTAN,PAHANG,"['transit_station', 'gas_station', 'shopping_mall']"
ZUS Coffee – Antara Gapi,"No 15-G (Ground Floor), Jalan Gapi 1A/3, Perniagaan Antara Gapi, 48200 Serendah, Selangor Darul Ehsan.",3.4220853,101.6286482,,35,ULU SELANGOR,SELANGOR,['transit_station']
ZUS Coffee – Kangar Jaya,"No 21 (Ground Floor), Jalan Kangar Jaya 14, Jalan Tuanku Syed Putra, Kangar Jaya, 01000 Kangar, Perlis.",6.4057758,100.179271,,67,TIADA DAERAH,PERLIS,['shopping_mall']
"ZUS Coffee – Medan Putra, Alor Setar","No 210-A (Ground Floor), Medan Putra Seberang, Jalan Putra, 05150 Alor Setar, Kedah Darul Aman",6.125081,100.3568723,,22,DAERAH KOTA SETAR,KEDAH,"['university', 'gas_station', 'shopping_mall']"
ZUS Coffee – Changlun,"No 11 (Ground Floor), Lebuhraya Bukit Kayu Hitam, Pekan Changlun 2, 06010 Changlun, Kedah Darul Aman",6.4359626,100.4307808,,55,DAERAH KUBANG PASU,KEDAH,"['university', 'gas_station', 'shopping_mall']"
ZUS Coffee – Shah Alam Seksyen 14 (Vista Alam),"F-G-29 (Ground Floor), Vista Alam, Jalan Ikhtisas, Seksyen 14, 40000 Shah Alam, Selangor Darul Ehsan",3.0710833,101.5244694,,36,PETALING,SELANGOR,"['transit_station', 'university', 'shopping_mall']"
ZUS Coffee – ITCC Penampang,"Lot G-16 (Ground Floor), ITCC Shopping Mall, Jalan Pintas Penampang, 89500 Penampang, Sabah",5.9101536,116.0914083,,103,WEST COAST SOUTH,SABAH,"['university', 'shopping_mall']"
ZUS Coffee – Iconic Point Simpang Ampat,"No 29-G (Ground Floor), Jalan Iconic Point, Iconic Point Business Park, 14100 Simpang Ampat, Pulau Pinang",5.2835499,100.4762989,,14,SEBERANG PERAI SELATAN,PULAU PINANG,"['transit_station', 'university', 'gas_station', 'shopping_mall']"
ZUS Coffee – Jengka,"K-08 (Ground Floor), Lorong TARBP 6, Tun Abdul Razak Business Park, 26400 Bandar Pusat Jengka, Pahang Darul Makmur.",3.7552993,102.5403374,,84,DAERAH MARAN,PAHANG,['gas_station']
ZUS Coffee – Bandar Saujana Putra,"No 19-G, Jalan SP 1/1, Bandar Saujana Putra, 42610 Jenjarom, Selangor Darul Ehsan.",2.9521024,101.5767484,,32,KUALA LANGAT,SELANGOR,['shopping_mall']
ZUS Coffee – AEON Mall Ipoh Klebang,"G21, Ground Floor, AEON Mall Ipoh Klebang, Laluan Klebang Restu 40, 31200 Chemor, Perak",4.6800341,101.1313595,,68,DAERAH KINTA,PERAK,[]
ZUS Coffee – CALTEX Temiang,"Lot 40766, Persiaran Sri Pulai 2, 70400 Seremban, Negeri Sembilan Darul Khusus.",2.7481033,101.9430693,,2,SEREMBAN,NEGERI SEMBILAN,"['transit_station', 'gas_station']"
ZUS Coffee – AEON Mall Kota Bharu,"S47 & S48B, Second Floor, AEON Mall Kota Bharu, Lembah Sireh, 15050 Kota Bharu, Kelantan",6.1100676,102.2307775,,45,KOTA BHARU,KELANTAN,"['transit_station', 'university', 'shopping_mall']"
ZUS Coffee – SB Mall Sungai Buloh,"G-17B, SB Mall, Bukit Rahman Putra, 47000 Sungai Buloh, Selangor",3.2088515,101.563661,,36,PETALING,SELANGOR,"['transit_station', 'gas_station', 'shopping_mall']"
ZUS Coffee – Subang Bestari,"No 3 (Ground Floor), Jalan Nova U5/N, Subang Bestari, 40150 Shah Alam, Selangor",3.1772225,101.5475768,,36,PETALING,SELANGOR,"['transit_station', 'university', 'gas_station']"
ZUS Coffee – Sungai Udang,"No 24 (Ground Floor), Jalan Kerambit 4, Bandar Baru Sungai Udang, 76300 Sungai Udang, Melaka.",2.2905433,102.1400217,,19,MELAKA TENGAH,MELAKA,"['gas_station', 'shopping_mall']"
ZUS Coffee – AEON Mall Tebrau City,"FK2, First Floor, Aeon Tebrau City Shopping Centre, 3, Persiaran Desa Tebrau, Taman Desa Tebrau, 81100 Johor Bahru",1.5490688,103.7959073,,61,JOHOR BAHRU,JOHOR,"['transit_station', 'university', 'gas_station', 'shopping_mall']"
ZUS Coffee – Setia City Mall,"L1-120, Level 1, Setia City Mall, Persiaran Setia Dagang, Setia Alam, 40170 Shah Alam, Selangor",3.1102518,101.4585692,,36,PETALING,SELANGOR,"['transit_station', 'shopping_mall']"
ZUS Coffee – Jelutong,"No 11-G, Vantage Point, Jalan Lenggong, 11600 Jelutong, Pulau Pinang.",5.3962826,100.3158286,,15,TIMOR LAUT,PULAU PINANG,"['transit_station', 'gas_station', 'shopping_mall']"
ZUS Coffee – Batang Kali,"No 7 (Ground Floor), Jalan Mahagoni 7/1A, Seksyen 4, Perniagaan Jalan Mahagoni, 44300 Batang Kali, Selangor Darul Ehsan.",3.4621018,101.6574971,,35,ULU SELANGOR,SELANGOR,"['transit_station', 'gas_station', 'shopping_mall']"
ZUS Coffee – Meru Raya,"No 14 (Ground Floor), Jalan Meru Bestari B2, Medan Meru Bestari, 30020 Ipoh, Perak Darul Ridzuan",4.6699188,101.0771976,,68,DAERAH KINTA,PERAK,"['transit_station', 'university', 'gas_station', 'shopping_mall']"
MENARA WORLDWIDE,"Ground Floor, Menara Worldwide, 198, Jln Bukit Bintang, Kuala Lumpur, 55100 Kuala Lumpur, Wilayah Persekutuan Kuala Lumpur",3.1480224,101.7181721,,52,KUALA LUMPUR,WP KUALA LUMPUR,"['transit_station', 'university', 'gas_station', 'shopping_mall']"
"DATARAN PAHLAWAN, MELAKA","B-001(B) Dataran Pahlawan Melaka Megamall, Jln Merdeka, Bandar Hilir, 75000, Melaka",2.1899761,102.2504291,,19,MELAKA TENGAH,MELAKA,"['transit_station', 'university', 'shopping_mall']"
PUTRA HEIGHTS,"No 31 (Ground Floor), Jalan Putra Mahkota 7/6c, Putra Point Commercial Centre, 47650 Subang Jaya, Selangor",2.9964739,101.5736766,,36,PETALING,SELANGOR,"['transit_station', 'university', 'gas_station']"
"JALAN PEJABAT, KUALA TERENGGANU","1106, Jalan Pejabat, 20200 Kuala Terengganu, Terengganu",5.3295472,103.1430425,,13,KUALA TERENGGANU,TERENGGANU,"['transit_station', 'university', 'gas_station']"
1 UTAMA SHOPPING CENTRE,"1 Utama Shopping Centre, Lot L2-SK9, 1, Lebuh Bandar Utama, Bandar Utama, 47800 Petaling Jaya, Selangor",3.147911,101.6159551,,36,PETALING,SELANGOR,"['transit_station', 'gas_station', 'shopping_mall']"
SAUJANA UTAMA,"No. 23G, Taman, Jalan Bidara 10, Saujana Utama 3, 47000 Sungai Buloh, Selangor",3.2008466,101.4860235,,33,KUALA SELANGOR,SELANGOR,"['university', 'gas_station', 'shopping_mall']"
DENAI ALAM,"No 39, 1, Jln Elektron U16/D, Denai Alam, 40160 Shah Alam, Selangor",3.1625385,101.5121614,,36,PETALING,SELANGOR,"['transit_station', 'gas_station']"
"PEKAN SIMPANG KUALA, ALOR SETAR","No 224-A (Ground Floor) Jln PSK 6, Pekan Simpang Kuala, 05400 Alor Setar, Kedah",6.1003888,100.3656893,,22,DAERAH KOTA SETAR,KEDAH,"['university', 'gas_station', 'shopping_mall']"
BANDAR SERI COALFIELDS,"No 32 (Ground Floor), Bandar Seri Coalfields, Jalan BSC 2B/2, 47000 Sungai Buloh, Selangor",3.2408959,101.4797603,,33,KUALA SELANGOR,SELANGOR,['transit_station']
"PERMAS JAYA, JOHOR","No 28 (Ground Floor), Jln Permas 10, Bandar Baru Permas Jaya, 81750 Masai, Johor",1.4968768,103.8151902,,61,JOHOR BAHRU,JOHOR,"['transit_station', 'university', 'gas_station', 'shopping_mall']"
"QUEENS WATERFRONT, BAYAN LEPAS","1-G-26, Jalan Bayan Indah, Queens Waterfront Q1, 11900 Bayan Lepas, Penang",5.3324462,100.3095179,,16,BARAT DAYA,PULAU PINANG,"['transit_station', 'university', 'shopping_mall']"
"INDERA MAHKOTA 7, KUANTAN","B4-G, Jalan IM 7/5, Bandar Indera Mahkota, 25200 Kuantan, Pahang",3.8355503,103.3005481,,81,DAERAH KUANTAN,PAHANG,"['university', 'shopping_mall']"
"MACALISTER, GEORGETOWN","109-B, Jalan Macalister, 10400 George Town, Pulau Pinang",5.4167471,100.3286584,,15,TIMOR LAUT,PULAU PINANG,"['transit_station', 'university', 'shopping_mall']"
"TOPPEN SHOPPING CENTRE, JOHOR","Lot L1.K03A Toppen Shopping Centre, Taman Desa Tebrau, 81100 Johor Bahru, Johor",1.5516285,103.7980674,,61,JOHOR BAHRU,JOHOR,"['transit_station', 'university', 'gas_station', 'shopping_mall']"
"JALAN BAKAR ARANG, SG PETANI","B8 (Ground Floor), Jalan Bakar Arang, 08000 Sungai Petani, Kedah",5.624377,100.478538,,24,DAERAH KUALA MUDA,KEDAH,"['transit_station', 'shopping_mall']"
TROPICANA GARDENS MALL,"LOT 3F 47&48, Third Floor, Tropicana Gardens Mall, Jln PJU 3/21, Tropicana Indah, 47410 Petaling Jaya, Selangor",3.1493078,101.5928182,,36,PETALING,SELANGOR,"['transit_station', 'university', 'shopping_mall']"
"MAJU UTAMA, PENANG","No 3183 (Ground Floor), Jalan Maju, Pusat Perniagaan Maju Utama, 14000 Bukit Mertajam, Pulau Pinang",5.3521982,100.4692227,,17,SEBERANG PERAI TENGAH,PULAU PINANG,"['transit_station', 'gas_station', 'shopping_mall']"
BANDAR ENSTEK,"No 31 (Ground Floor), 1A, Jalan Timur 6, Timur@Enstek, 71760 Bandar Baru Enstek, Negeri Sembilan",2.7471301,101.7649457,,2,SEREMBAN,NEGERI SEMBILAN,"['transit_station', 'university', 'shopping_mall']"
LAKEFIELDS TRILLIUM,"58-G, Jalan Tasik Utama 5 Medan Niaga Tasik Damai, Sungai Besi, 57000 Kuala Lumpur",3.0621117,101.7105296,,52,KUALA LUMPUR,WP KUALA LUMPUR,"['transit_station', 'shopping_mall']"
"FREEPORT A’FAMOSA, MELAKA","Freeport A’Famosa Outlet, Lot 28, Jalan Kemus, Simpang Ampat, 78000 Alor Gajah, Melaka",2.4435729,102.2054001,,20,ALOR GAJAH,MELAKA,['shopping_mall']
"SERI ISKANDAR, PERAK","No 25 (Ground Floor), Persiaran SIBC 2, Business Centre, 31620 Seri Iskandar, Perak",4.3581949,100.9679135,,75,DAERAH PERAK TENGAH,PERAK,"['transit_station', 'gas_station', 'shopping_mall']"
"SUTERA MALL, JOHOR","Sutera Mall, L2-550k, Jalan Sutera Tanjung 8/4, 81300 Skudai, Johor",1.5173326,103.6712284,,61,JOHOR BAHRU,JOHOR,"['transit_station', 'university', 'shopping_mall']"
"JALAN MOLEK, JOHOR","No 55 (Ground Floor, Jalan Molek 1/29, Taman Molek, 81100 Johor Bahru, Johor",1.5328588,103.7899986,,61,JOHOR BAHRU,JOHOR,"['transit_station', 'gas_station']"
"JASIN BESTARI, MELAKA","Ground Floor, JC 548, Jln Bestari 5, Bandar Jasin Bestari, 77200 Bemban, Melaka",2.277159,102.3903597,,18,JASIN,MELAKA,"['university', 'shopping_mall']"
"MASJID TANAH, MELAKA","SU 1443 (Ground Floor), Jalan Masjid Tanah Ria Utama, Taman Masjid Tanah Ria, 78300 Masjid Tanah, Melaka",2.3515438,102.1162641,,20,ALOR GAJAH,MELAKA,[]
"IPOH SOUTHGATE, PERAK","No 13 (Ground Floor), Jalan Pulai Hartamas 1, Medan Pulai Hartamas, 31300 Ipoh, Perak",4.5501651,101.1166587,,68,DAERAH KINTA,PERAK,[]
"RAJA UDA BUTTERWORTH, PENANG","No 17 (Ground Floor), Pusat Perniagaan Raja Uda, Jalan Raja Uda, Kampung Paya, 12300 Butterworth, Pulau Pinang",5.4177279,100.3807697,,51,SEBERANG PERAI UTARA,PULAU PINANG,"['transit_station', 'university', 'gas_station', 'shopping_mall']"
SUNWAY CARNIVAL MALL,"1F-K17, Sunway Carnival Mall, 3068, Jalan Todak, Pusat Bandar Seberang Jaya, 13700 Seberang Jaya, Pulau Pinang",5.3986313,100.3980421,,17,SEBERANG PERAI TENGAH,PULAU PINANG,"['transit_station', 'university', 'gas_station', 'shopping_mall']"
NIBONG TEBAL C-MART,"LOT 72A, 74A, 76A, NO. 3974, Jalan Industri Cenderawasih Kompleks Industri Cenderawasih, LOT 5631, MK 11, 14300 Nibong Tebal, Pulau Pinang",5.1630008,100.507941,,14,SEBERANG PERAI SELATAN,PULAU PINANG,[]
"ALMA @ BUKIT MERTAJAM, PENANG","No 13 (Ground Floor), Persiaran Seri Impian, Pusat Perniagaan Mahkota Impian, 14000 Bukit Mertajam, Pulau Pinang",5.3181514,100.4763715,,17,SEBERANG PERAI TENGAH,PULAU PINANG,"['transit_station', 'university', 'gas_station', 'shopping_mall']"
GURNEY PARAGON MALL PENANG,"163-D, Lot LG-03, Lower Ground Floor Gurney Paragon Mall, Persiaran Gurney, 10250 George Town, Pulau Pinang",5.4357359,100.311185,,15,TIMOR LAUT,PULAU PINANG,"['transit_station', 'university', 'shopping_mall']"
"TAMAN SRI SERDANG, SERI KEMBANGAN","3352 (Ground Floor), Jalan 18/32, Taman Sri Serdang, 43300 Seri Kembangan, Selangor",3.0093182,101.7138441,,36,PETALING,SELANGOR,"['transit_station', 'university']"
KUALA KANGSAR,"No 4D (Ground Floor), Jalan Raja Chulan, 33000 Kuala Kangsar, Perak",4.7756132,100.9412491,,70,DAERAH KUALA KANGSAR,PERAK,"['transit_station', 'university', 'gas_station', 'shopping_mall']"
BANDAR INDAHPURA KULAI,"No 221 (Ground Floor) Jalan Kiambang 14, Pusat Komersial Indah, Bandar Indahpura, 81000 Kulai, Johor",1.6414861,103.6054047,,63,KULAI,JOHOR,"['transit_station', 'university', 'gas_station', 'shopping_mall']"
"WATSONS TD SENTRAL, TAMAN DAYA","Ground Floor, No. 6C, Jalan Sagu 18, Taman Daya, 81100 Johor Bahru, Johor",1.5443438,103.7654544,,61,JOHOR BAHRU,JOHOR,"['university', 'gas_station', 'shopping_mall']"
SEGAMAT GENUANG,"26G, Jalan Genuang Perdana, Bandar Segamat Baru, 85000 Segamat, Johor",2.4901251,102.8462961,,66,DAERAH SEGAMAT,JOHOR,"['transit_station', 'gas_station']"
TAMPIN,"No 14 (Ground Floor), Jalan Besar, 73000 Tampin, Negeri Sembilan",2.4700742,102.2315716,,3,TAMPIN,NEGERI SEMBILAN,"['transit_station', 'gas_station', 'shopping_mall']"
BANDAR PRIMA SENAWANG,"No. 91-G, Jalan BPS5, Bandar Prima Senawang, 70450 Seremban, Negeri Sembilan",2.7025645,101.9798529,,2,SEREMBAN,NEGERI SEMBILAN,"['transit_station', 'shopping_mall']"
"CENTRIO SQUARE, SEREMBAN 2","Pusat Dagangan, 126-G, Jln S2 B21, Seremban 2, 70300 Seremban, Negeri Sembilan",2.6923625,101.9030709,,2,SEREMBAN,NEGERI SEMBILAN,"['transit_station', 'university', 'gas_station', 'shopping_mall']"
IOI CONEZION,"A-G-11, Connection Commercial, Persiaran IRC 3 IRC 3, IOI Resort City, 62502 Sepang, Wilayah Persekutuan Putrajaya",2.968031,101.70751,,38,SEPANG,SELANGOR,['transit_station']
STARLING MALL,"K-S-202, Second Floor The Starling Mall, 6, Jalan SS 21/37, Damansara Utama, 47400 Petaling Jaya, Selangor",3.1353852,101.6230065,,36,PETALING,SELANGOR,"['transit_station', 'university', 'gas_station', 'shopping_mall']"
SUBANG PERDANA,"27-G, Jalan Dinar E U3/E, Taman Subang Perdana, 40150 Shah Alam, Selangor",3.148099,101.5454878,,36,PETALING,SELANGOR,"['transit_station', 'university']"
BANDAR SERI PUTRA,"13G, Jalan Seri Putra 1/2 Bandar Seri Putra Bangi, 43000 Kajang, Selangor",2.8844046,101.7912139,,34,ULU LANGAT,SELANGOR,"['transit_station', 'university', 'gas_station', 'shopping_mall']"
BUKIT BARU,"Pusat Niaga, No 4 (Ground Floor) Jalan PNBBU 3, Bukit Baru, Bukit Baru Utama, 75150 Bukit Baru, Melaka",2.2153359,102.270932,,19,MELAKA TENGAH,MELAKA,"['transit_station', 'gas_station', 'shopping_mall']"
SENTUL POINT,"BC-G-08 Sentul Point Suite Apartments, Jalan Sentul Pasar, Sentul, 51000 Kuala Lumpur",3.2019993,101.6883618,,52,KUALA LUMPUR,WP KUALA LUMPUR,"['transit_station', 'university', 'gas_station', 'shopping_mall']"
TAIPING PEKELILING,"No. 8 & 10, Off, Jalan Pekeliling, Taman Tasik Commercial Centre, 34000 Taiping, Perak",4.8522613,100.746098,,71,DAERAH LARUT MATANG,PERAK,"['university', 'gas_station', 'shopping_mall']"
CAMERON CENTRUM,"A-G-11, Presint 1 Cameron Centrum, 39100 Brinchang, Pahang",4.49105,101.3885071,,88,DAERAH CAMERON HIGHLANDS,PAHANG,"['gas_station', 'shopping_mall']"
KAMPAR,"2234, Ground Floor, Jalan Batu Sinar, Taman Bandar Baru, 31900 Kampar, Perak",4.3258942,101.143947,,77,DAERAH KAMPAR,PERAK,"['transit_station', 'gas_station', 'shopping_mall']"
TANJUNG MALIM,"No 24A (Ground Floor, Jalan Taman Sri Indah, Taman Sri Indah Utama, 35900 Tanjong Malim, Perak",3.6915784,101.5242999,,76,DAERAH MUALLIM,PERAK,['shopping_mall']
BATU GAJAH PERDANA,"No 1 (Ground Floor), Persiaran BG Perdana 1, Pusat Komersial BG Perdana, 31000 Batu Gajah, Perak",4.4988144,101.0224132,,68,DAERAH KINTA,PERAK,"['university', 'gas_station', 'shopping_mall']"
"SERI MANJUNG, SITIAWAN","29, Jalan PPMP 3/1, 32040 Seri Manjung, Perak",4.2166766,100.6690987,,80,DAERAH MANJUNG,PERAK,"['transit_station', 'university', 'gas_station', 'shopping_mall']"
BANDAR BARU TELUK INTAN,"7, Ground Floor, Jalan Intan 1, Bandar Baru Teluk Intan, 36000 Teluk Intan, Perak",4.0193072,101.0229272,,72,DAERAH HILIR PERAK,PERAK,"['transit_station', 'gas_station', 'shopping_mall']"
"JLN BESERAH, KUANTAN","B-298 (Ground Floor), Jalan Beserah, 25300 Kuantan, Pahang",3.835633,103.35003,,81,DAERAH KUANTAN,PAHANG,"['transit_station', 'gas_station']"
TEMERLOH,"No 53 (Ground Floor, Jln Ahmad Shah 1, Pusat Komersil, 28000 Temerloh, Pahang",3.448649,102.4163482,,90,DAERAH TEMERLOH,PAHANG,"['transit_station', 'university', 'shopping_mall']"
RAUB,"No 28 (Ground Floor), Pusat Perniagaan Raub, 27600 Raub, Pahang",3.7904628,101.8570704,,89,DAERAH RAUB,PAHANG,"['transit_station', 'university', 'gas_station', 'shopping_mall']"
BENTONG,"29, Jalan Loke Yew, 28700 Bentong, Pahang",3.5245789,101.9079121,,87,DAERAH BENTONG,PAHANG,"['gas_station', 'shopping_mall']"
PARIT BUNTAR,"No. 38, Ground Floor, Jalan Wawasan 4, Taman Wawasan Jaya, 34200 Parit Buntar, Perak",5.1133618,100.4810148,,69,DAERAH KERIAN,PERAK,['gas_station']
"ZUS Coffee – Medan Saujana Kamunting, Taiping","51, Jalan Medan Saujana, Medan Saujana, 34600 Kamunting, Perak",4.8746904,100.7277124,,71,DAERAH LARUT MATANG,PERAK,"['transit_station', 'university', 'gas_station', 'shopping_mall']"
"ZUS Coffee -��Ayer Keroh Heights, Melaka","No.25, GF, Jalan Komersial TAKH 2, Taman Ayer Keroh Heights, Ayer Keroh, 75450 Hang Tuah Jaya Melaka",2.2533575,102.2906848,,19,MELAKA TENGAH,MELAKA,"['transit_station', 'university', 'gas_station']"
SEBERANG PERAI,"Unit B1-G-12, Elevate 1, Lorong Pauh Jaya 1/3, Taman Pauh Jaya, 13500 Permatang Pauh, Seberang Perai Tengah",5.3701628,100.415582,,17,SEBERANG PERAI TENGAH,PULAU PINANG,"['transit_station', 'gas_station', 'shopping_mall']"
IPOH PENGKALAN STATION 18,"34, Jalan Pengkalan Putra 1, Pusat Perniagaan Pengkalan Putra, 31650 Ipoh, Perak",4.5522461,101.0750381,,68,DAERAH KINTA,PERAK,"['transit_station', 'gas_station']"
BAYAN LEPAS,"01-03, Golden Triangle 2 Commercial Square, Jalan Dato Ismail Hashim, 11900 Bayan Lepas",5.3294555,100.2748494,,16,BARAT DAYA,PULAU PINANG,"['transit_station', 'gas_station', 'shopping_mall']"
PENANG AYER ITAM,"61-01, Jalan Pisang Embun, 11500 Ayer Itam, Penang",5.3969113,100.286923,,15,TIMOR LAUT,PULAU PINANG,"['transit_station', 'shopping_mall']"
ZUS Coffee – Tanjung Tokong,"A-G-8, Vantage Desiran, Jalan Desiran Tanjung, 10470 Tanjung Tokong, Pulau Pinang",5.4555563,100.3097292,,15,TIMOR LAUT,PULAU PINANG,"['transit_station', 'university', 'shopping_mall']"
IPOH BOND SQUARE,"11, Ground Floor, Jalan Niaga Simee 1, Pusat Perniagaan Simee (Bond Square), 31400 Ipoh, Perak",4.618147,101.1162982,,68,DAERAH KINTA,PERAK,"['transit_station', 'university', 'gas_station', 'shopping_mall']"
PLAZA PANDAN MALIM,"15, Jalan PPM 8, Plaza Pandan Malim, 75250 Melaka",2.2285866,102.226661,,19,MELAKA TENGAH,MELAKA,"['transit_station', 'university', 'gas_station', 'shopping_mall']"
PALM MALL SEREMBAN,"UG-29, Palm Mall, Jalan Sungai Ujong, 70200 Seremban, Negeri Sembilan Darul Khursus.",2.7198558,101.9229003,,2,SEREMBAN,NEGERI SEMBILAN,"['transit_station', 'gas_station', 'shopping_mall']"
"ZUS Coffee – DPulze Shopping Centre, Cyberjaya","Lot EX-GW-01A, Ground Floor, DPulze Shopping Centre, Persiaran Multimedia, Cyber 12, 63000 Cyberjaya",2.9220548,101.650968,,38,SEPANG,SELANGOR,"['transit_station', 'university', 'shopping_mall']"
MELAKA KOTA LAKSAMANA,"59, Jalan KLJ 6, Taman Kota Laksamana Jaya, 75200 Melaka",2.1996228,102.2338266,,19,MELAKA TENGAH,MELAKA,['transit_station']
KOTA DAMANSARA,"No. 27-1, Jalan PJU 5/12, Dataran Sunway, Kota Damansara, 47810 Petaling Jaya",3.153239,101.5935081,,36,PETALING,SELANGOR,"['transit_station', 'university', 'shopping_mall']"
ATRIA SHOPPING GALLERY,"C01A, Concourse Floor, Atria Shopping Gallery, Jalan SS 22/23, Damansara Jaya 47400 Petaling Jaya.",3.1270963,101.6165176,,36,PETALING,SELANGOR,"['transit_station', 'gas_station', 'shopping_mall']"
ADDA HEIGHT,"No.20 (GF) Jalan Adda 7, 81100 Johor Bahru, Johor",1.5463813,103.7475743,,61,JOHOR BAHRU,JOHOR,"['transit_station', 'gas_station', 'shopping_mall']"
KOTA TINGGI,"No. 36G, Jalan Jaffar, 81900 Kota Tinggi, Johor",1.7109194,103.8805395,,57,KOTA TINGGI,JOHOR,"['transit_station', 'gas_station']"
MERSING,"No. 16G, Jalan Abu Bakar, Mersing 86800, Johor",2.4313135,103.8370557,,65,DAERAH MERSING,JOHOR,"['transit_station', 'gas_station', 'shopping_mall']"
JOHOR ECO BOTANIC,"No. 50 G, Jalan Eko Botani 3/2, Taman Eko Botani, 79100 Iskandar Puteri, Johor",1.439912,103.6193324,,61,JOHOR BAHRU,JOHOR,"['transit_station', 'university', 'gas_station', 'shopping_mall']"
"ZUS Coffee – Jalan Kebun Teh, Johor","No.4G, Jalan Kebun Teh 2, Taman Kebun Teh, 80250 Johor Bahru, Johor",1.4855869,103.7536653,,61,JOHOR BAHRU,JOHOR,"['transit_station', 'gas_station']"
PONTIAN KOTA EMAS,"70-G, Jalan Emas 2, Pusat Perniagaan Kota Emas 82000 Pontian, Johor",1.4801527,103.3996165,,60,PONTIAN,JOHOR,"['transit_station', 'gas_station', 'shopping_mall']"
"ZUS Coffee – Sungai Rengit, Pengerang, Johor","88-01, Jalan Hee Seng, Sungai Rengit, 81620 Pengerang, Johor",1.3509777,104.2236352,,57,KOTA TINGGI,JOHOR,"['transit_station', 'gas_station']"
BUKIT TIRAM,"No. 13G, Jalan Ledang 25, Taman Bukit Tiram, 81800 Ulu Tiram, Johor",1.6023863,103.8135822,,61,JOHOR BAHRU,JOHOR,[]
SETIA TROPIKA,"No. 45, Jalan Setia Tropika 1/15, Taman Setia Tropika, 81200 Johor Bahru, Johor",1.5461439,103.7128486,,61,JOHOR BAHRU,JOHOR,"['transit_station', 'gas_station', 'shopping_mall']"
BANDAR BARU UDA,"No. 11G, Jalan Padi Emas 1/4, Bandar Baru Uda, 81200 Johor Bahru, Johor",1.4926226,103.7087756,,61,JOHOR BAHRU,JOHOR,"['transit_station', 'shopping_mall']"
TAMAN UNIVERSITI,"8, Jalan Pendidikan 8, Taman Universiti 81300 Skudai, Johor",1.5439197,103.630445,,61,JOHOR BAHRU,JOHOR,"['transit_station', 'university', 'gas_station', 'shopping_mall']"
KLUANG VERSI BOULEVARD,"11, Ground Floor, Jalan Duku 86000 Kluang, Johor",2.0378083,103.3198773,,62,KLUANG,JOHOR,"['transit_station', 'university', 'gas_station', 'shopping_mall']"
PEKAN NANAS,"101, Ground Floor, Jalan Industri 8, Taman Perindustrian Pekan Nanas 81500 Johor",1.4953656,103.526666,,60,PONTIAN,JOHOR,"['transit_station', 'gas_station']"
KOTA MASAI JOHOR,"3, Jalan Ekoperniagaan 9, Taman Kota Masai 81700 Pasir Gudang, Johor",1.4858354,103.9367499,,61,JOHOR BAHRU,JOHOR,['transit_station']
BATU PAHAT,"17, Jalan Rotan Utama, Taman Sri Jaya 83000 Batu Pahat Johor",1.8631266,102.9538533,,58,BATU PAHAT,JOHOR,['shopping_mall']
MUAR BAKRI,29-27 (BHU) Jalan Pesta � Taman Kampung Kenangan Tun Dr Ismail 84000 Muar Johor,2.0484634,102.5844075,,59,MUAR,JOHOR,"['transit_station', 'shopping_mall']"
BUKIT SENTOSA,"19G, Jalan Orkid 1F/2, Bukit Sentosa BS 1, 48300 Rawang, Selangor",3.403425,101.5605299,,35,ULU SELANGOR,SELANGOR,"['transit_station', 'gas_station']"
KOTA WARISAN,"Unit 63-G, Jalan Warisan Sentral 1, Kota Warisan, Bandar Baru Salak Tinggi, 43900 Sepang, Selangor",2.821752,101.6940299,,38,SEPANG,SELANGOR,['shopping_mall']
SHAH ALAM SEKSYEN 13,"No. 50, Jalan Renang 13/26, Tadisma Business Park, Seksyen 13, 40100 Shah Alam, Selangor",3.0894835,101.5448046,,36,PETALING,SELANGOR,"['transit_station', 'university', 'gas_station', 'shopping_mall']"
"ZUS Coffee – Sunway Gandaria, Bangi","UG-11 Sunway Gandaria, Jalan Pusat Bandar 2, Bandar Baru Bangi, Seksyen 9, 43650 Selangor",2.9612955,101.7533353,,34,ULU LANGAT,SELANGOR,"['transit_station', 'university', 'gas_station', 'shopping_mall']"
RAWANG REEF,"No. A13A-G, Jalan Reef 1/1, Pusat Perniagaan Reef, 48000 Rawang, Selangor",3.3036549,101.5964383,,37,GOMBAK,SELANGOR,"['transit_station', 'gas_station', 'shopping_mall']"
PRIMA SRI GOMBAK,"G-39, Jalan Prima SG 2, Prima Sri Gombak, 68100 Batu Caves, Selangor",3.2394653,101.7005417,,37,GOMBAK,SELANGOR,"['transit_station', 'gas_station', 'shopping_mall']"
"ZUS Coffee – Ecohill, Semenyih","C-06-01, Blok C, Pusat Komersial Dataran Ecohill, Jalan Ecohill 1/2, Setia Ecohill 43500 Semenyih, Selangor",2.9247455,101.8568295,,34,ULU LANGAT,SELANGOR,"['transit_station', 'gas_station', 'shopping_mall']"
BANDAR BARU SELAYANG,"59, Jalan 2/16, Bandar Baru Selayang 68100 Batu Caves, Selangor",3.256561,101.6563823,,37,GOMBAK,SELANGOR,"['transit_station', 'university', 'gas_station']"
BANDAR BUKIT RAJA,"13G, Jalan Rodat 2A/KU5, Bandar Bukit Raja 41050 Klang Selangor",3.0844239,101.4425847,,39,KLANG,SELANGOR,['transit_station']
SETIA ALAM TP2,"36-G, Jalan Setia Utama AS U13/AS, Setia Alam, 40170 Shah Alam Selangor",3.124817,101.467869,,36,PETALING,SELANGOR,"['gas_station', 'shopping_mall']"
SUNWAY PINNACLE,"Unit G-02, Ground Floor, The Pinnacle Annexe, Persiaran Lagoon, Sunway City, 47500, Selangor",3.069972,101.6101561,,36,PETALING,SELANGOR,"['transit_station', 'university', 'shopping_mall']"
KOTA KEMUNING,"1-17-1, No. 14, Persiaran Anggerik Vanilla, Kota Kemuning, Seksyen 31, 40460 Shah Alam, Selangor",3.0044664,101.5371868,,39,KLANG,SELANGOR,"['transit_station', 'university', 'shopping_mall']"
SHAH ALAM SEKSYEN 7,"24, Jalan Plumbum P7/P, Seksyen 7, 40000 Shah Alam, Selangor.",3.0682428,101.4904352,,36,PETALING,SELANGOR,"['transit_station', 'university', 'gas_station', 'shopping_mall']"
"ZUS Coffee – MKH Boulevard, Kajang","Lot G-15, MKH Boulevard Kajang, Jalan Changkat, Bandar Kajang, 43000 Kajang Selangor.",2.9899122,101.7929649,,34,ULU LANGAT,SELANGOR,"['transit_station', 'university', 'gas_station', 'shopping_mall']"
THE CURVE,"K-G27-W, The Curve, Jalan PJU 7/3, Mutiara Damansara, 47820 Petaling Jaya, Selangor.",3.1577484,101.611405,,36,PETALING,SELANGOR,"['transit_station', 'gas_station', 'shopping_mall']"
?CHERAS TRADER SQUARE,"83A-G, Jalan Dataran Cheras 4, Dataran Perniagaan Cheras, Balakong 43200 Selangor.",3.035503,101.76412,,34,ULU LANGAT,SELANGOR,"['transit_station', 'shopping_mall']"
MAIN PLACE,"GF-20, Main Place Mall, USJ 21, 47640 Subang Jaya, Selangor.",3.025988,101.5816259,,36,PETALING,SELANGOR,"['transit_station', 'university', 'gas_station', 'shopping_mall']"
ZUS BUKIT TINGGI 2,"No.55, Lorong Batu Nilam 21B, Bandar Bukit Tinggi 2, 41200 Klang Selangor Darul Ehsan.",2.9977985,101.4436176,,39,KLANG,SELANGOR,"['transit_station', 'university', 'shopping_mall']"
ZUS Coffee – The Mines Shopping Mall,"The Mines Shopping Mall, Level 3-21A, Jalan Dulang, Seri Kembangan, 43300 Selangor.",3.02807,101.7187837,,36,PETALING,SELANGOR,"['transit_station', 'university', 'gas_station', 'shopping_mall']"
IOI RIO CITY,"Lot 11-1, IOI RIO Office Park, 47100 Puchong, Selangor",3.021089,101.6236909,,36,PETALING,SELANGOR,['transit_station']
PUCHONG IOI MALL,"Lot FK-02, First, Jalan Puchong, Bandar Puchong Jaya, 47170 Puchong, Selangor.",3.0515285,101.6239895,,36,PETALING,SELANGOR,"['transit_station', 'gas_station']"
BANDAR MENJALARA,"37G, Jalan 3/62A, Bandar Menjalara, 52200 Kuala Lumpur",3.1950509,101.6298663,,52,KUALA LUMPUR,WP KUALA LUMPUR,"['transit_station', 'gas_station', 'shopping_mall']"
MASJID JAMEK,"No. 45-1 & 45-2, Ground Floor, Leboh Ampang, Kuala Lumpur City Centre, 50100 Kuala Lumpur",3.1491223,101.697435,,52,KUALA LUMPUR,WP KUALA LUMPUR,"['transit_station', 'university', 'shopping_mall']"
BANDAR SRI PERMAISURI,"11G, Jalan Dwitasik 1, Bandar Sri Permaisuri, 56000 Kuala Lumpur",3.0991787,101.7122799,,52,KUALA LUMPUR,WP KUALA LUMPUR,"['transit_station', 'university', 'gas_station', 'shopping_mall']"
PAVILION BUKIT JALIL,"Lot P.1.05.00 Pavilion Bukit Jalil, Persiaran Jalil Utama, Bukit Jalil, 57000 Kuala Lumpur",3.0507484,101.6707223,,52,KUALA LUMPUR,WP KUALA LUMPUR,"['transit_station', 'shopping_mall']"
MYTOWN CHERAS,"Mytown Shopping Mall, LOT G-K-015 & 016, Ground Floor, No.6, Jalan Cochrane, Seksyen 90, 55100 Kuala Lumpur",3.1348713,101.722742,,52,KUALA LUMPUR,WP KUALA LUMPUR,"['transit_station', 'gas_station', 'shopping_mall']"
"ZUS Coffee – Taman Bendahara, Kuala Selangor","No. 2, Jalan Bendahara 1/2A. Taman Bendahara 45000 Kuala Selangor.",3.3209543,101.2680954,,33,KUALA SELANGOR,SELANGOR,"['transit_station', 'shopping_mall']"
MID VALLEY MEGAMALL,"SK-10, Second Floor, Mid Valley Megamall, Lingkaran Syed Putra, Midvalley City, 59200 Kuala Lumpur",3.1175261,101.6773459,,52,KUALA LUMPUR,WP KUALA LUMPUR,"['transit_station', 'university', 'gas_station', 'shopping_mall']"
"ZUS Coffee – Fortune Centra, Kepong","G-16, Fortune Centra, 2, Jalan Metro Perdana Timur 6, Taman Usahawan Kepong, 52100 Kuala Lumpur",3.2153766,101.6433191,,52,KUALA LUMPUR,WP KUALA LUMPUR,"['transit_station', 'university', 'gas_station', 'shopping_mall']"
FOUND8 KL SENTRAL,"5, Jalan Stesen Sentral, East Wing, Level 3 Kuala Lumpur Sentral 50470 Kuala Lumpur",3.1333276,101.6874008,,52,KUALA LUMPUR,WP KUALA LUMPUR,"['transit_station', 'university', 'gas_station', 'shopping_mall']"
PUBLIKA,"Lot K1, G3, Publika Shopping Gallery, No. 1, Jalan Dutamas 1, Solaris Dutamas, 50480 Kuala Lumpur",3.1714242,101.6642001,,52,KUALA LUMPUR,WP KUALA LUMPUR,"['transit_station', 'shopping_mall']"
PLAZA DAMAS,"60, Jalan Sri Hartamas 1, Taman Sri Hartamas, 50480 Kuala Lumpur, Wilayah Persekutuan Kuala Lumpur",3.1639099,101.6566697,,52,KUALA LUMPUR,WP KUALA LUMPUR,"['transit_station', 'university', 'shopping_mall']"
SRI PETALING,"Lot 36-J, Jalan Radin Anum, Sri Petaling, 57000 Kuala Lumpur",3.0702447,101.6904197,,52,KUALA LUMPUR,WP KUALA LUMPUR,"['transit_station', 'university', 'shopping_mall']"
KL EAST MALL,"Lot G2K-03A, KL East Mall, Jalan Lingkaran Tengah 2, Taman Sri Melati, 53100 Kuala Lumpur.",3.2247781,101.7304658,,52,KUALA LUMPUR,WP KUALA LUMPUR,"['university', 'gas_station', 'shopping_mall']"
DANAU KOTA,"Lot 1-3, Danau Kota Kormesial, No. 1, Jalan 6A/6, Jalan Taman Ibu Kota, Taman Danau Kota, 53300 Kuala Lumpur.",3.2087361,101.719247,,52,KUALA LUMPUR,WP KUALA LUMPUR,"['transit_station', 'university', 'gas_station', 'shopping_mall']"
EKOCHERAS MALL,"S-63A, 2nd Floor, EkoCheras Mall, No 693, Batu 5, Jalan Cheras, 56000 Kuala Lumpur.",3.1047555,101.732902,,52,KUALA LUMPUR,WP KUALA LUMPUR,"['transit_station', 'university', 'gas_station']"
BINJAI 8 PREMIUM SOHO,"G04, Pangsapuri Servis (Suite) Binjai 8 No, 2, Lorong Binjai, 50450 Kuala Lumpur.",3.1593673,101.7185128,,52,KUALA LUMPUR,WP KUALA LUMPUR,"['transit_station', 'university', 'gas_station', 'shopping_mall']"
MOUNT AUSTIN,"65, Jalan Mutiara Emas 2A, Taman Mount Austin, 81100 Johor Bahru",1.5533225,103.7850527,,61,JOHOR BAHRU,JOHOR,['university']
"ZUS Coffee – The Park Sky Residence, Bukit Jalil","22, The Park Sky Residence @ Bukit Jalil City, Persiaran Jalil Utama, Bukit Jalil, 57000 Kuala Lumpur.",3.0529836,101.6724976,,52,KUALA LUMPUR,WP KUALA LUMPUR,"['transit_station', 'university', 'shopping_mall']"
TAMAN DESA,"No 11-0-10, Jalan 4/109F Danau Business Centre, Taman Danau Desa, 58100 Kuala Lumpur.",3.1003835,101.687474,,52,KUALA LUMPUR,WP KUALA LUMPUR,"['transit_station', 'gas_station']"
